state_code,location_id,location_name,street_num,street_num_half,street_prefix,street_name,street_type,street_suffix,apt_type,apt_num,city,state,zip,zip4,datetime_created,is_active,data_sharing_committee_id,created_by_committee_id,latitude,longitude,is_staging_location,datetime_modified,van_precinct_id,datetime_suppressed,imputed_precinct_id
NH,13663,Dunkin Donuts,30,,,Indian,Trl,,,,Windham,NH,03087,,2019-09-26 18:15:00,t,73296,73296,42.792901,-71.311177,f,2019-10-08 21:41:57.26,,,972504
NH,14784,261 1st New Hampshire Turnpike,261,,,1St NH,Tpke,,,,Northwood,NH,03261,3405,2019-11-14 21:59:00,t,73296,73296,43.198176,-71.15808,f,2019-12-11 20:28:34.047,,,972415
NH,14731,Johnson's Seafood and Steak,1334,,,1St NH,Tpke,,,,Northwood,NH,03261,3214,2019-11-12 21:10:00,t,73296,73296,43.223339,-71.249881,f,2019-11-12 21:10:31.457,972415,,972415
NH,12433,Plymouth Town Common,,,,POST OFFICE,Sq,,,,Plymouth,NH,03264,,2019-07-23 16:00:00,t,73296,73296,43.757428,-71.688355,f,2019-08-22 15:27:42.137,,,972429
NH,12434,Temporary Plymouth Field Office,17,,,Railroad,Sq,,,,Plymouth,NH,03264,1602,2019-07-23 16:04:00,t,73296,73296,43.75542,-71.686891,f,2019-07-23 16:04:36.39,972429,,972429
NH,13976,Keene State College,309,,,Student,Ctr,,,,Keene,NH,03431,,2019-10-07 15:27:00,t,73296,73296,42.956141,-72.307433,f,2019-10-10 23:31:50.957,,,972333
NH,12234,Keene Central Square,,,,CENTRAL,Sq,,,,Keene,NH,03431,,2019-07-09 21:22:00,t,73296,73296,42.933814,-72.27858,f,2019-12-11 23:50:34.737,,,972335
NH,12854,Fitzwilliam Town Library,11,,,Templeton,Tpke,,,,Fitzwilliam,NH,03447,3335,2019-08-13 15:59:00,t,73296,73296,42.779894,-72.144593,f,2019-08-13 15:59:44.463,972282,,972282
NH,12544,Twelve Pines,11,,,School St Depot,Sq,,,,Peterborough,NH,03458,,2019-07-26 23:12:00,t,73296,73296,42.87666,-71.95029,f,2019-11-05 20:46:50.323,,,972422
NH,14931,Bernie Peterborough Office,,,,NOONE,Fls,,,,Peterborough,NH,03458,,2019-11-21 22:40:00,t,73296,73296,42.85966,-71.962039,t,2020-01-05 03:14:50.113,,,972422
NH,12440,Berlin Dunkin' Donuts,9,,,Green,Sq,,,,Berlin,NH,03570,1931,2019-07-23 19:38:00,t,73296,73296,44.468329,-71.183791,f,2019-07-23 19:38:25.233,972206,,972206
NH,14061,Claremont Bernie Office,24,,,Opera House,Sq,,,,Claremont,NH,03743,5408,2019-10-10 19:31:00,t,73296,73296,43.372925,-72.338211,f,2020-01-04 19:14:23.48,,,972231
NH,13298,94 2nd NH Tpke,94,,,2Nd NH,Tpke,,,,Claremont,NH,03743,7202,2019-09-11 16:48:00,t,73296,73296,43.32822,-72.30994,f,2019-09-21 01:07:41.407,972487,,972487
NH,15366,Home of Chad Reed,5,,,Crowley,Ter,,,,Hanover,NH,03755,2515,2019-12-18 19:07:00,t,73296,73296,43.695614,-72.278536,f,2019-12-18 19:07:04.72,972309,,972309
NH,14950,Dunkin',6,,,Colby,Cor,,,NH3826,East Hampstead,NH,03826,2511,2019-11-23 03:37:00,t,73296,73296,42.891071,-71.140737,f,2019-12-27 19:06:15.463,,,972305
NH,15309,Dunkin' Donuts,6,,,Colby,Cor,,,,East Hampstead,NH,03826,2511,2019-12-12 19:48:00,t,73296,73296,42.891071,-71.140737,f,2020-01-02 22:18:08.28,,,972305
NH,14991,Shauna's House,16,,,Chinook,Trl,,,,Tamworth,NH,03886,,2019-11-26 22:09:00,t,73296,73296,43.860303,-71.262252,f,2019-11-26 22:09:23.89,,,972481
NH,13721,Los Angeles,,,,,,,,,,,,,2019-09-29 22:26:00,t,73296,73296,,,f,2019-09-29 22:26:09.853,,,972186
NH,15564,Pittsfield house,,,,,,,,,Pittsfield,NH,,,2020-01-03 01:30:00,t,73296,73296,43.3059,-71.3242,f,2020-01-03 01:30:17.75,,,972426
NH,12629,Pricilla Gilman's Residence,,,,,,,,,Bar Harbor,ME,,,2019-08-01 20:03:00,t,73296,73296,44.3876,-68.2039,f,2019-08-01 20:03:41.63,,,972227
NH,13102,Raymond High,,,,,,,,,,,,,2019-08-29 21:35:00,t,73296,73296,,,f,2019-08-29 21:34:35.227,,,972186
NH,13101,Raymond High,,,,,,,,,,,,,2019-08-29 21:34:00,t,73296,73296,,,f,2019-08-29 21:34:35.227,,,972186
NH,14879,New York Volunteering,,,,,,,,,,,,,2019-11-19 21:27:00,t,73296,73296,,,f,2019-11-19 21:26:52.82,,,972186
NH,14836,Dunkin' Donuts,125,,,NH-101A,,,,,Amherst,NH,03031,,2019-11-17 20:50:00,t,73296,73296,42.806415,-71.567467,f,2020-01-03 22:33:39.913,,,972192
NH,14835,Dunkin' Donuts,124,,,NH-101A,,,,,Amherst,NH,03031,,2019-11-17 20:36:00,t,73296,73296,42.812214,-71.5914,f,2019-11-17 20:36:30.207,,,972192
NH,14492,Dunkin Donuts,125,,,State Route 101A,,,,,Amherst,NH,03031,2215,2019-10-30 18:48:00,t,73296,73296,42.806415,-71.567467,f,2019-11-16 22:41:10.25,,,972192
NH,12962,Derry Public Library,64,,E,Broadway,,,,,Derry,NH,03038,2414,2019-08-20 16:18:00,t,73296,73296,42.883862,-71.322132,f,2019-08-20 16:18:34.89,,,972258
NH,12270,Derry Public Library,64,,E,Broadway,,,,,Derry,NH,03038,2414,2019-07-11 22:30:00,t,73296,73296,42.883862,-71.322132,f,2020-01-02 19:48:28.383,,,972258
NH,14004,03038,,,,,,,,,Derry,NH,03038,,2019-10-08 21:40:00,t,73296,73296,42.892761,-71.276763,f,2019-10-12 23:06:40.73,,,972256
NH,14152,Noah's Home,,,,,,,,,Hollis,NH,03049,,2019-10-15 21:28:00,t,73296,73296,42.727236,-71.596133,f,2019-10-27 16:55:27.847,,,972319
NH,13439,Mary-Ellen's Apt (Milford),,,,Milford Trails Apts 95 Powers St Bldg 4,,,Bldg,4,Milford,NH,03055,,2019-09-18 00:48:00,t,73296,73296,42.824566,-71.638209,f,2019-09-18 00:48:57.623,,,972384
NH,14499,Strikers East Bowling Center,,,,,,,,,Raymond,NH,03077,,2019-10-30 21:55:00,t,73296,73296,43.035264,-71.161747,f,2019-10-30 21:56:27.387,,,972436
NH,15040,Coffee Coffee.,326,,S,Broadway,,,,,Salem,NH,03079,4502,2019-12-02 22:46:00,t,73296,73296,42.75451,-71.209061,f,2020-01-02 23:33:26.623,,,972451
NH,13532,03104,,,,,,,,,Manchester,NH,03104,,2019-09-21 01:51:00,t,73296,73296,43.009552,-71.439782,f,2019-09-21 01:54:42.99,,,972364
NH,14382,"Sandwich, NH, 03227",,,,,,,,,Sandwich,NH,03227,,2019-10-25 00:47:00,t,73296,73296,43.832315,-71.477813,f,2019-11-02 23:05:36.55,,,972458
NH,15277,TBD,,,,,,,,,Hopkinton,NH,03229,,2019-12-10 23:16:00,t,73296,73296,43.194774,-71.691066,f,2019-12-10 23:16:48.827,,,972326
NH,14257,George Gamble Library,27,,,NH-104,,,,,Danbury,NH,03230,,2019-10-18 23:13:00,t,73296,73296,43.525212,-71.860219,f,2019-10-19 20:09:04.313,,,972251
NH,14262,New England College,,,,,,,,,Henniker,NH,03242,,2019-10-19 14:44:00,t,73296,73296,43.169421,-71.831189,f,2019-10-25 18:31:09.19,,,972314
NH,14264,03242,,,,,,,,,Henniker,NH,03242,,2019-10-19 15:55:00,t,73296,73296,43.169421,-71.831189,f,2019-10-27 23:31:25.147,,,972314
NH,15491,Cup and Crumb,1040,,,NH-109,,,,,Moultonborough,NH,03254,,2019-12-28 02:23:00,t,73296,73296,43.756531,-71.393106,f,2019-12-28 02:23:06.823,,,972389
NH,14035,Rounds 207 (PSU),,,,,,,,,Plymouth,NH,03264,,2019-10-09 21:16:00,t,73296,73296,43.75702,-71.688153,f,2019-10-16 23:04:59.557,,,972429
NH,14752,42 main street,,,,,,,,,Plymouth,NH,03264,,2019-11-13 03:15:00,t,73296,73296,43.75702,-71.688153,f,2019-11-13 03:15:04.117,,,972429
NH,14489,HUB Fireplace Lounge,,,,Na,,,,,Plymouth,NH,03264,,2019-10-30 17:25:00,t,73296,73296,43.75702,-71.688153,f,2019-10-30 17:26:06.073,,,972429
NH,14047,03287,,,,,,,,,Wilmot,NH,03287,,2019-10-10 01:17:00,t,73296,73296,43.443115,-71.922637,f,2019-10-12 23:06:40.73,,,972501
NH,15320,"Concord, NH, 03301",,,,,,,,,Concord,NH,03301,,2019-12-13 15:39:00,t,73296,73296,43.208634,-71.548656,f,2019-12-14 17:41:41.573,,,972240
NH,14929,TBD,,,,,,,,,Hopkinton,NH,03301,,2019-11-21 21:28:00,t,73296,73296,43.208634,-71.548656,f,2019-11-21 21:28:25.823,,,972240
NH,14252,NHTI,,,,Beverly D Grappone Hall,,,,,Concord,NH,03301,,2019-10-18 19:52:00,t,73296,73296,43.2228,-71.533079,f,2019-10-18 19:52:46.78,,,972240
NH,14826,Town of Concord: Town Clerk,,,,CONCORD NH,,,,,Concord,NH,03301,,2019-11-17 00:36:00,t,73296,73296,43.203235,-71.536995,f,2019-11-17 00:35:47.647,,,972242
NH,14249,NHTI,,,,"Beverly D Grappone Hall, Nhti",,,,,Concord,NH,03301,,2019-10-18 17:22:00,t,73296,73296,43.222744,-71.532798,f,2019-10-26 19:06:17.933,,,972240
NH,14602,Maxfield Public Library,8,,,NH-129,,,,,Loudon,NH,03307,,2019-11-06 02:33:00,t,73296,73296,43.286116,-71.46711,f,2019-12-27 17:22:51.683,,,972357
NH,14679,Hungry Buffalo,58,,,NH-129,,,,,Loudon,NH,03307,,2019-11-10 00:16:00,t,73296,73296,43.28793,-71.463006,f,2019-11-15 05:38:57.32,,,972357
NH,14093,Petrocelli 115,,,,,,,,,Keene,NH,03431,,2019-10-11 20:11:00,t,73296,73296,42.965044,-72.294803,f,2019-10-16 21:03:26.92,,,972333
NH,14089,Fishbowl Room,,,,,,,,,Keene,NH,03431,,2019-10-11 20:03:00,t,73296,73296,42.965044,-72.294803,f,2019-11-25 17:19:12.667,,,972333
NH,14261,Student Center,,,,,,,,,Keene,NH,03431,,2019-10-19 14:38:00,t,73296,73296,42.965044,-72.294803,f,2019-12-11 23:54:42.507,,,972333
NH,14092,"Night Owl Cafe, Student Center",,,,,,,,,Keene,NH,03431,,2019-10-11 20:07:00,t,73296,73296,42.965044,-72.294803,f,2019-10-16 02:04:43.41,,,972333
NH,14578,KSC,,,,,,,,,Keene,NH,03431,,2019-11-04 17:45:00,t,73296,73296,42.965044,-72.294803,f,2019-11-04 17:46:22.83,,,972333
NH,14373,Central Square,,,,,,,,,Keene,NH,03431,,2019-10-24 17:40:00,t,73296,73296,42.956141,-72.307433,f,2019-10-27 23:16:43.72,,,972333
NH,13194,Chesterfield Library,524,,,NH-63,,,,,Chesterfield,NH,03443,,2019-09-03 19:59:00,t,73296,73296,42.888128,-72.469174,f,2019-12-03 21:54:57.81,,,972229
NH,14940,Dunkin Donuts,12,,,NH-119,,,,,Fitzwilliam,NH,03447,,2019-11-22 19:25:00,t,73296,73296,42.781333,-72.140317,f,2019-11-22 19:25:52.70,,,972282
NH,15552,167 NH-123,167,,,NH-123,,,,,Marlow,NH,03456,,2020-01-02 18:23:00,t,73296,73296,43.117989,-72.201263,f,2020-01-02 18:23:58.48,,,972376
NH,13394,03461,,,,,,,,,Rindge,NH,03461,,2019-09-15 23:42:00,t,73296,73296,42.756663,-72.013247,f,2019-11-25 17:19:59.72,,,972438
NH,13586,Ingalls Memorial Library,,,,,,,,,Rindge,NH,03461,,2019-09-22 21:48:00,t,73296,73296,42.756663,-72.013247,f,2019-09-25 21:17:54.91,,,972438
NH,14792,Identity Coffee Lab,1090,,,NH-119,,,,,Rindge,NH,03461,,2019-11-15 02:06:00,t,73296,73296,42.757872,-72.008338,f,2019-12-11 19:33:29.717,,,972438
NH,14790,784 NH-63,784,,,NH-63,,,,,Westmoreland,NH,03467,,2019-11-15 01:51:00,t,73296,73296,42.961586,-72.442897,f,2019-11-15 01:55:12.573,,,972499
NH,14258,148 Main st,,,,,,,,,Littleton,NH,03561,,2019-10-18 23:33:00,t,73296,73296,44.306163,-71.770124,f,2019-10-18 23:34:05.813,,,972355
NH,14272,"2050 Main St,",,,,,,,,,Bethlehem,NH,03574,,2019-10-19 20:09:00,t,73296,73296,44.306163,-71.770124,f,2019-10-24 01:05:51.76,,,972355
NH,15302,Claudette & Dean's Place,1858,,,US Route 3,,,,,Stratford,NH,03590,4552,2019-12-12 00:17:00,t,73296,73296,44.745119,-71.624541,f,2019-12-12 20:10:25.013,,,972473
NH,15321,Munroe's Family Restaurant,633,,,US-3,,,,,Carroll,NH,03595,,2019-12-13 16:21:00,t,73296,73296,44.266432,-71.562759,f,2019-12-13 16:20:42.733,,,972224
NH,14525,34 Elm St,,,,,,,,,Walpole,NH,03608,,2019-10-31 21:20:00,t,73296,73296,43.084282,-72.402142,f,2019-11-08 19:14:18.733,,,972489
NH,13472,Dunbar Free Library,401,,,NH-10,,,,,Grantham,NH,03753,,2019-09-19 17:06:00,t,73296,73296,43.488685,-72.136661,f,2019-09-25 01:04:48.73,,,972298
NH,14749,"Grantham Town Hall, Lower Level",300,,,NH-10,,,,,Grantham,NH,03753,,2019-11-13 01:52:00,t,73296,73296,43.49153,-72.137872,f,2019-11-13 01:52:48.897,,,972298
NH,14761,Berry 367,,,,,,,,,Hanover,NH,03755,,2019-11-13 21:08:00,t,73296,73296,43.701958,-72.288905,f,2019-11-14 00:32:52.46,,,972309
NH,14222,Baker Library  rm 152,,,,,,,,,Hanover,NH,03755,,2019-10-17 15:23:00,t,73296,73296,43.740984,-72.139135,f,2019-11-11 17:49:54.703,,,972309
NH,14025,03755,,,,,,,,,Hanover,NH,03755,,2019-10-09 18:33:00,t,73296,73296,43.740984,-72.139135,f,2019-11-13 21:04:33.337,,,972309
NH,14766,Berry 367,367,,,Berry,,,,,Hanover,NH,03755,,2019-11-14 00:57:00,t,73296,73296,43.707024,-72.286365,f,2019-11-14 01:04:21.713,,,972309
NH,14114,Carpenter Hall rm 201C,,,,DARTMOUTH COLLEGE,,,,,Hanover,NH,03755,,2019-10-13 19:21:00,t,73296,73296,43.704441,-72.288694,f,2019-10-16 02:08:58.567,,,972309
NH,14131,Carpenter Hall rm 201C,,,,Na,,,,,Hanover,NH,03755,,2019-10-15 02:30:00,t,73296,73296,43.701958,-72.288905,f,2019-10-15 23:33:34.21,,,972309
NH,14844,Berry 171 A,,,,,,,,,Hanover,NH,03755,,2019-11-18 18:33:00,t,73296,73296,43.701958,-72.288905,f,2019-11-18 18:33:27.687,,,972309
NH,13980,Baker Library,,,,,,,,,Hanover,NH,03755,,2019-10-07 18:48:00,t,73296,73296,43.740984,-72.139135,f,2019-10-08 00:03:59.443,,,972309
NH,12527,Gusanoz,410,,,Miracle Mile,,,,,Lebanon,NH,03766,2639,2019-07-26 19:33:00,t,73296,73296,43.63627,-72.27318,f,2019-07-26 19:32:43.11,,,972348
NH,15575,Dunkin',546,,,NH-11,,,,,Sunapee,NH,03782,,2020-01-03 18:20:00,t,73296,73296,43.38782,-72.087519,f,2020-01-03 18:38:06.20,,,972477
NH,14357,767 Islington,,,,,,,,,Portsmouth,NH,03801,,2019-10-23 22:04:00,t,73296,73296,43.071755,-70.762553,f,2019-10-24 00:31:10.26,,,972431
NH,13484,University of New Hampshire,110,,,Murkland Hall,,,,,Durham,NH,03824,,2019-09-19 20:33:00,t,73296,73296,43.136173,-70.933322,f,2019-12-06 23:52:54.127,,,972270
NH,15036,UNH MUB G12,,,,,,,,,Durham,NH,03824,,2019-12-02 20:35:00,t,73296,73296,43.134343,-70.929961,f,2019-12-05 22:59:26.117,,,972270
NH,13693,UNH Scott Lawn,,,,Scott Hall Lawn University Of New Hampsh,,,,,Durham,NH,03824,,2019-09-27 15:54:00,t,73296,73296,43.137544,-70.931211,f,2019-09-27 15:54:25.287,,,972270
NH,14858,Murkland Courtyard,,,,,,,,,Durham,NH,03824,,2019-11-18 22:54:00,t,73296,73296,43.136045,-70.932929,f,2019-11-18 22:54:38.777,,,972270
NH,14524,03830,,,,,,,,,East Wakefield,NH,03830,,2019-10-31 21:17:00,t,73296,73296,43.613563,-70.9945,f,2019-10-31 21:17:53.31,,,972488
NH,14593,Honey Dew Donuts,471,,,NH-11,,,,,Farmington,NH,03835,,2019-11-05 21:03:00,t,73296,73296,43.370761,-71.046968,f,2019-11-08 00:04:20.377,,,972281
NH,13498,Greenland Plans to Win House,,,,,,,,,Greenland,NH,03840,,2019-09-19 23:53:00,t,73296,73296,43.042721,-70.847671,f,2019-10-24 17:50:55.11,,,972301
NH,14653,69 NH-11,69,,,NH-11,,,,,New Durham,NH,03855,,2019-11-08 19:08:00,t,73296,73296,43.429137,-71.166827,f,2019-11-08 19:08:39.527,,,972402
NH,15483,Honey Dew Donuts,471,,,NH-11,,,,,Farmington,NH,03867,,2019-12-27 18:41:00,t,73296,73296,43.370761,-71.046968,f,2019-12-31 20:39:53.787,,,972281
NH,14763,Pennsylvania Station,,,,,,,,,New York,NY,10119,,2019-11-13 22:45:00,t,73296,73296,40.750568,-73.993519,f,2019-12-06 21:05:10.447,,,972317
NH,13303,60612,,,,,,,,,Chicago,IL,60612,,2019-09-11 18:19:00,t,73296,73296,41.88032,-87.687749,f,2019-09-11 20:41:40.70,,,972229
NH,15287,Bernie,,,,,,,,,Bernie,MO,63822,,2019-12-11 19:17:00,t,73296,73296,36.668945,-89.968702,f,2019-12-11 19:22:32.587,,,972317
NH,14237,"Grassroots Bernie Office, Highland Park",1268,,N,Avenue 50,,,,,Los Angeles,CA,90042,2268,2019-10-17 23:16:00,t,73296,73296,34.12121,-118.20682,f,2019-10-17 23:16:52.007,,,972229
NH,12245,Bite Me Kupcakez and Bakery,4,,,Mound,Ct,,,,Merrimack,NH,03054,4488,2019-07-10 18:41:00,t,73296,73296,42.839278,-71.492095,f,2019-10-06 17:53:37.60,972379,,972379
NH,14189,OOS_MA_Cambridge Park,15,,,Cambridgepark,Dr,,,,Cambridge,MA,02140,2309,2019-10-16 18:08:00,t,73296,73296,42.394841,-71.145269,f,2019-11-06 20:56:44.34,,,972420
NH,14190,Cambridgepark Dr,15,,,Cambridgepark,Dr,,,,Cambridge,MA,02140,2309,2019-10-16 18:10:00,t,73296,73296,42.394841,-71.145269,f,2019-10-16 18:09:52.21,,,972420
NH,14601,Rick's House,23,,,Belleview,Dr,,,,Amherst,NH,03031,3051,2019-11-06 01:43:00,t,73296,73296,42.839976,-71.621691,f,2019-11-13 22:18:20.91,972192,,972192
NH,15365,5 Jonquil Ln,5,,,Jonquil,Dr,,,,Nashua,NH,03062,3085,2019-12-18 18:11:00,t,73296,73296,42.714947,-71.49775,f,2019-12-18 18:11:40.31,972398,,972398
NH,13340,7 Clovercrest Dr,7,,,Clovercrest,Dr,,,,Nashua,NH,03062,1108,2019-09-13 18:32:00,t,73296,73296,42.720598,-71.52994,f,2019-09-17 20:27:37.467,972394,,972394
NH,14948,1 Hampshire Dr,1,,,Hampshire,Dr,,,,Nashua,NH,03063,1934,2019-11-23 00:50:00,t,73296,73296,42.780224,-71.499494,f,2019-12-04 18:28:10.287,972391,,972391
NH,14504,Strikers East Bowling Center,4,,,Essex,Dr,,,,Raymond,NH,03077,2605,2019-10-30 23:08:00,t,73296,73296,43.035264,-71.161747,f,2019-11-07 21:06:03.823,972436,,972436
NH,14455,Saint Anselm College,100,,,Saint Anselm,Dr,,,,Manchester,NH,03102,1308,2019-10-29 17:06:00,t,73296,73296,42.9878,-71.50618,f,2019-10-29 17:06:51.327,,,972294
NH,14549,Manchester field office,144,,,Bicentennial,Dr,,,,Manchester,NH,03104,1301,2019-11-02 14:59:00,t,73296,73296,43.023159,-71.368906,f,2019-11-02 23:05:36.55,972363,,972197
NH,14607,1050 Bicentennial Dr,1050,,,Bicentennial,Dr,,,,Manchester,NH,03104,2140,2019-11-06 15:38:00,t,73296,73296,43.019712,-71.44835,f,2019-11-06 15:41:17.587,,,972363
NH,12230,Manchester HQ,71,,,Hamel,Dr,,Unit,B3,Manchester,NH,03104,2139,2019-07-09 20:53:00,t,73296,73296,43.01953,-71.45646,f,2019-07-09 20:53:24.45,,,972363
NH,13333,Manchester HQ,71,,,Hamel,Dr,,,,Manchester,NH,03104,2139,2019-09-13 16:29:00,t,73296,73296,43.019927,-71.449948,f,2019-11-20 18:41:02.207,,,972363
NH,12231,Manchester Field Office,140,,,Bicentennial,Dr,,,,Hooksett,NH,03106,,2019-07-09 20:59:00,t,73296,73296,43.020637,-71.448812,f,2019-12-26 20:25:33.633,,,972325
NH,12239,Dunkin' Donuts Bedford,3,,,Leavey,Dr,,,,Bedford,NH,03110,4437,2019-07-09 23:21:00,t,73296,73296,42.958101,-71.506602,f,2019-07-09 23:20:54.087,,,972202
NH,14624,Ryan's House,76,,S,Hills,Dr,,,,Bedford,NH,03110,4923,2019-11-06 22:20:00,t,73296,73296,42.928396,-71.548174,f,2019-12-05 22:46:28.833,972202,,972202
NH,13133,Circle 9 Ranch Campground,39,,,Windymere,Dr,,,,Epsom,NH,03234,4015,2019-08-30 20:39:00,t,73296,73296,43.221181,-71.368405,f,2019-08-30 20:38:55.757,972278,,972278
NH,14087,McAuliffe-Shepard Discovery Center,2,,,Institute,Dr,,,,Concord,NH,03301,7400,2019-10-11 19:45:00,t,73296,73296,43.2246,-71.53314,f,2019-10-11 19:45:56.367,,,972240
NH,13996,Metzler's Home,,,,MOUNTAIN VIEW,Dr,,,,Peterborough,NH,03458,,2019-10-08 19:23:00,t,73296,73296,42.876706,-71.971971,f,2019-10-10 01:02:33.703,,,972422
NH,12902,Metzler House,70,,,Mountain View,Dr,,,,Peterborough,NH,03458,1325,2019-08-15 16:34:00,t,73296,73296,42.876711,-71.972137,f,2019-11-14 21:36:32.85,972422,,972422
NH,13083,Franklin Pierce University,40,,,University,Dr,,,,Rindge,NH,03461,5046,2019-08-29 15:27:00,t,73296,73296,42.770862,-72.057615,f,2019-08-29 15:27:35.327,972438,,972438
NH,12915,Franklin Pierce University,40,,,University,Dr,,,,Rindge,NH,03461,5046,2019-08-16 19:27:00,t,73296,73296,42.770862,-72.057615,f,2019-11-04 17:56:16.24,972438,,972438
NH,15062,Barbara's House,7,,,Wedgewood,Dr,,,,Stratham,NH,03885,2450,2019-12-03 21:25:00,t,73296,73296,42.9937,-70.880662,f,2020-01-03 19:10:33.02,972474,,972474
NH,12314,Josh's Apartment,3,,,Ashley,Dr,,Apt,4,Kennebunk,ME,04043,7396,2019-07-17 15:52:00,t,73296,73296,43.382619,-70.547666,f,2019-07-17 15:52:03.227,,,972445
NH,15289,Flat Iron Exchange,51,,,Square,Dr,,,,Bellows Falls,VT,05101,1279,2019-12-11 19:24:00,t,73296,73296,43.13344,-72.443879,f,2019-12-11 20:50:00.083,,,972490
NH,12967,Barnard Park,9,,,Barnard,Ln,,,,Goffstown,NH,03045,,2019-08-20 17:59:00,t,73296,73296,43.01266,-71.589704,f,2019-11-05 21:44:27.183,,,972293
NH,14349,Nora's Home,2,,,Cleasby,Ln,,,,Hollis,NH,03049,6141,2019-10-23 18:22:00,t,73296,73296,42.739685,-71.588096,f,2019-12-17 19:36:57.90,972319,,972319
NH,14949,Dan Toomey's House,10,,,Lantern,Ln,,,,Nashua,NH,03062,1364,2019-11-23 01:28:00,t,73296,73296,42.742556,-71.510908,f,2019-12-04 18:28:10.287,972394,,972394
NH,14989,Emilys house,144,,,Hyfield,Ln,,,,Jefferson,NH,03583,6229,2019-11-26 21:40:00,t,73296,73296,44.39792,-71.424509,f,2019-12-08 20:08:43.49,,,972330
NH,13955,Volunteer's House,26,,,Whitcomb,Ln,,,,Claremont,NH,03743,5807,2019-10-06 19:43:00,t,73296,73296,43.358903,-72.342163,f,2019-10-10 01:04:02.04,972232,,972232
NH,13643,Bema Outdoor Amphitheater,5,,,Ivy,Ln,,,,Hanover,NH,03755,1805,2019-09-25 19:13:00,t,73296,73296,43.705939,-72.279629,f,2019-09-25 19:13:39.73,972309,,972309
NH,15359,"7 Lois Lane, Barrington NH",7,,,Lois,Ln,,,,Barrington,NH,03825,3833,2019-12-17 22:20:00,t,73296,73296,43.195143,-71.026005,f,2020-01-03 01:22:37.647,,,972199
NH,15358,"Lois Lane, Barrington NH",,,,LOIS,Ln,,,,Barrington,NH,03825,,2019-12-17 22:16:00,t,73296,73296,43.238012,-71.025843,f,2019-12-17 22:16:38.733,,,972199
NH,15329,"57 Lois Lane, Barrington NH",57,,,Lois,Ln,,,,Barrington,NH,03825,5815,2019-12-13 20:18:00,t,73296,73296,43.238412,-71.026218,f,2019-12-13 20:18:53.45,972199,,972199
NH,14475,Lane Memorial Library,30,,,Bitternell,Ln,,,,Hampton,NH,03842,,2019-10-29 21:57:00,t,73296,73296,42.944808,-70.823887,f,2019-10-29 21:57:56.45,,,972306
NH,15295,Seabrook Library,25,,,Liberty,Ln,,,,Seabrook,NH,03874,4587,2019-12-11 20:37:00,t,73296,73296,42.884375,-70.861379,f,2020-01-03 20:28:06.33,,,972459
NH,14861,Miles Brautigam,327,,,Peck,Ln,,,,Putney,VT,05346,9109,2019-11-19 06:01:00,t,73296,73296,43.060713,-72.51854,f,2019-11-19 06:00:50.67,,,972489
NH,14551,3405 Harpers Ferry Ln,3405,,,Harpers Ferry,Ln,,,,Austin,TX,78745,5822,2019-11-02 15:51:00,t,73296,73296,30.206236,-97.833689,f,2019-11-02 15:51:30.577,,,972317
NH,14194,UVM Royal Theater,116,,,University,Pl,,,,Burlington,VT,05405,1749,2019-10-16 18:26:00,t,73296,73296,44.477454,-73.198043,f,2019-10-16 18:26:11.247,,,972387
NH,14926,Walmart Parking Lot,1105,,,Boston,Rd,,,,Springfield,MA,01119,1333,2019-11-21 20:26:00,t,73296,73296,42.136007,-72.506987,f,2019-11-22 18:01:53.693,,,972503
NH,15115,"Panera Bread Salem, Mass",433,,,Paradise,Rd,,,,Swampscott,MA,01907,1333,2019-12-06 00:28:00,t,73296,73296,42.48114,-70.901564,f,2019-12-06 00:28:41.583,,,972451
NH,14352,Dunkin' Donuts,405,,,Hooksett,Rd,,,,Auburn,NH,03032,3919,2019-10-23 19:33:00,t,73296,73296,43.02363,-71.3685,f,2020-01-02 22:16:37.38,,,972197
NH,13494,Noah's House,150,,,Old Milford,Rd,,,,Brookline,NH,03033,2454,2019-09-19 23:00:00,t,73296,73296,42.768331,-71.65968,f,2019-09-28 00:36:41.293,972218,,972218
NH,15356,692 Raymond Rd,692,,,Raymond,Rd,,,,Chester,NH,03036,4120,2019-12-17 21:13:00,t,73296,73296,42.982807,-71.209165,f,2019-12-17 21:14:29.91,972228,,972228
NH,13706,Nikki Casey,7,,,London,Rd,,,,Derry,NH,03038,2990,2019-09-28 14:31:00,t,73296,73296,42.905423,-71.324434,f,2019-09-28 14:31:21.887,972257,,972257
NH,12232,Private Home,7,,,London,Rd,,,,Derry,NH,03038,2990,2019-07-09 21:06:00,t,73296,73296,42.905423,-71.324434,f,2019-07-09 21:06:18.713,972257,,972257
NH,15057,Panera Bread,19,,,Manchester,Rd,,Ste,B,Derry,NH,03038,3067,2019-12-03 20:24:00,t,73296,73296,42.897607,-71.331391,f,2019-12-14 13:09:20.023,,,972257
NH,14640,104 Exeter Rd,104,,,Exeter,Rd,,,,Epping,NH,03042,2210,2019-11-07 20:42:00,t,73296,73296,43.034022,-71.055678,f,2019-11-07 20:42:32.177,972277,,972277
NH,15644,Epping Staging Location,7,,,Prescott,Rd,,,,Epping,NH,03042,2912,2020-01-05 03:10:00,t,73296,73296,43.043745,-71.078563,f,2020-01-05 03:10:47.26,972277,,972277
NH,12861,Dunkin',570,,,Mast,Rd,,,,Goffstown,NH,03045,5253,2019-08-13 18:42:00,t,73296,73296,42.99961,-71.51584,f,2019-10-31 01:10:23.223,,,972294
NH,12862,Dunkin',570,,,Mast,Rd,,,,Goffstown,NH,03045,5253,2019-08-13 18:43:00,t,73296,73296,42.99961,-71.51584,f,2019-08-13 18:44:06.143,,,972294
NH,13197,Stephenson Memorial Library,761,,,Forest,Rd,,,,Greenfield,NH,03047,4521,2019-09-03 20:16:00,t,73296,73296,42.950176,-71.870842,f,2019-09-03 20:16:49.97,972300,,972300
NH,14259,Greater Nashua Field Office,77,,,DERRY,Rd,,,,Hudson,NH,03051,,2019-10-18 23:42:00,t,73296,73296,42.775293,-71.443612,f,2019-12-27 20:40:34.56,,,972327
NH,12872,Macs Apples,230,,,Mammoth,Rd,,,,Londonderry,NH,03053,3206,2019-08-13 21:14:00,t,73296,73296,42.857997,-71.369767,f,2019-08-13 21:14:02.99,972356,,972356
NH,15551,Nick's House,103,,,High Range,Rd,,,,Londonderry,NH,03053,3121,2020-01-02 18:14:00,t,73296,73296,42.854187,-71.397886,f,2020-01-03 23:17:20.09,972356,,972356
NH,14933,Sam's House,28,,,Back River,Rd,,,,Merrimack,NH,03054,2686,2019-11-22 01:29:00,t,73296,73296,42.890631,-71.475895,f,2019-11-22 01:29:22.743,972379,,972379
NH,13377,Kat's House,11,,,Stable,Rd,,,,Milford,NH,03055,3539,2019-09-15 16:35:00,t,73296,73296,42.814068,-71.628545,f,2019-09-25 00:32:49.517,972384,,972384
NH,12865,New Boston Gazebo,5,,,Meetinghouse Hill,Rd,,,,New Boston,NH,03070,3808,2019-08-13 19:03:00,t,73296,73296,42.976489,-71.690796,f,2019-08-13 19:02:56.77,972400,,972400
NH,13103,Raymond High,45,,,Harriman Hill,Rd,,,,Raymond,NH,03077,1509,2019-08-29 21:36:00,t,73296,73296,43.04871,-71.17951,f,2019-08-29 21:36:29.417,972436,,972436
NH,13613,Raymond Dunkin Donuts,7,,,Freetown,Rd,,,,Raymond,NH,03077,,2019-09-24 21:40:00,t,73296,73296,43.037104,-71.163532,f,2019-09-24 21:40:14.663,,,972436
NH,13473,Starbucks Coffee (Mall @ Rockingham Park),99,,,Old Rockingham,Rd,,,,Salem,NH,03079,2125,2019-09-19 17:11:00,t,73296,73296,42.803423,-71.244234,f,2019-09-19 17:10:54.853,972449,,972449
NH,14868,Derry-Salem Elks Lodge #2226,39,,,Shadow Lake,Rd,,,,Salem,NH,03079,1401,2019-11-19 17:27:00,t,73296,73296,42.81029,-71.24353,f,2019-11-19 17:27:40.043,,,972454
NH,12895,Panera Bread,92,,,Cluff Crossing,Rd,,,,Salem,NH,03079,3504,2019-08-14 19:41:00,t,73296,73296,42.766207,-71.221327,f,2019-12-31 20:29:37.117,,,972450
NH,15370,Wilton Police Department Parking Lot,7,,,Burns Hill,Rd,,,,Wilton,NH,03086,,2019-12-18 20:31:00,t,73296,73296,42.8445,-71.738978,f,2019-12-31 23:07:16.97,,,972502
NH,13372,Windam Public Libary,8,,,Fellows,Rd,,,,Windham,NH,03087,1909,2019-09-14 21:11:00,t,73296,73296,42.80295,-71.29966,f,2019-10-09 16:58:26.537,,,972504
NH,13505,48 Huse Rd,48,,,Huse,Rd,,,,Manchester,NH,03103,3086,2019-09-20 14:36:00,t,73296,73296,42.971163,-71.426922,f,2019-09-22 22:08:48.673,972370,,972370
NH,13058,Southern New Hampshire University,2500,,N,River,Rd,,,,Manchester,NH,03106,1018,2019-08-27 22:30:00,t,73296,73296,43.038289,-71.453698,f,2019-12-06 20:59:15.227,972363,,972325
NH,15130,"Southern New Hampshire University, Small Gymnasium",1628,,,MOUNTAINVIEW,Rd,,,,Manchester,NH,03106,,2019-12-06 20:47:00,t,73296,73296,43.040023,-71.456534,f,2019-12-06 20:53:36.583,,,972325
NH,14869,Executive Court Banquet Facility,1199,,S,Mammoth,Rd,,,,Manchester,NH,03109,5101,2019-11-19 17:35:00,t,73296,73296,42.936763,-71.414146,f,2019-11-19 17:35:24.34,972370,,972370
NH,14997,177 Bryant Rd,177,,,Bryant,Rd,,,,Manchester,NH,03109,5122,2019-11-27 01:09:00,t,73296,73296,42.949554,-71.400975,f,2019-12-12 18:53:30.48,972370,,972370
NH,14655,The Inside Scoop,260,,,Wallace,Rd,,,,Bedford,NH,03110,5143,2019-11-08 20:19:00,t,73296,73296,42.936556,-71.526466,f,2019-12-11 19:10:05.483,972202,,972202
NH,15327,The Nardino's Residence,95,,,Hoyt,Rd,,,,Andover,NH,03216,3303,2019-12-13 18:40:00,t,73296,73296,43.471715,-71.712045,f,2019-12-13 23:59:18.56,972193,,972193
NH,15319,Nate's House,290,,,Baker Hill,Rd,,,,Bradford,NH,03221,6704,2019-12-13 14:36:00,t,73296,73296,43.344644,-71.985674,f,2019-12-13 15:01:20.83,972479,,972479
NH,12568,Lobban Residence,710,,,Dick Brown,Rd,,,,Bristol,NH,03222,5312,2019-07-30 15:35:00,t,73296,73296,43.656362,-71.717915,f,2019-07-30 15:35:17.78,972215,,972215
NH,14510,Elkins Public Library parking lot,9,,,Center,Rd,,,,Canterbury,NH,03224,2401,2019-10-31 16:59:00,t,73296,73296,43.338172,-71.565038,f,2019-11-15 05:45:00.303,972223,,972223
NH,14620,7 Great Rock Rd,7,,,Great Rock,Rd,,,,Sandwich,NH,03227,,2019-11-06 20:29:00,t,73296,73296,43.786422,-71.449779,f,2019-12-17 21:32:57.58,,,972458
NH,14051,Sandwich Fair,7,,,Wentworth Hill,Rd,,,,Center Sandwich,NH,03227,,2019-10-10 15:56:00,t,73296,73296,43.803881,-71.438164,f,2019-10-12 22:04:42.15,,,972458
NH,15075,121 South Rd,121,,,South,Rd,,,,Hopkinton,NH,03229,2120,2019-12-04 01:06:00,t,73296,73296,43.188132,-71.675,f,2019-12-05 20:53:31.953,972326,,972326
NH,14675,Home of Vickie Bram & Allan Sheehy,1722,,,Hopkinton,Rd,,,,Hopkinton,NH,03229,2831,2019-11-09 23:11:00,t,73296,73296,43.190246,-71.669834,f,2019-11-19 21:19:27.667,972326,,972326
NH,13244,Dunkin' Donuts,1918,,,Dover,Rd,,,,Epsom,NH,03234,4132,2019-09-05 18:47:00,t,73296,73296,43.229085,-71.362359,f,2020-01-01 00:27:22.97,,,972278
NH,14813,Blasty Bough,3,,,Griffin,Rd,,,,Epsom,NH,03234,4816,2019-11-15 23:11:00,t,73296,73296,43.209122,-71.296381,f,2019-11-15 23:13:43.133,972278,,972278
NH,14808,Dunkin' Donuts,1618,,,Dover,Rd,,,,Epsom,NH,03234,4417,2019-11-15 19:40:00,t,73296,73296,43.22325,-71.334994,f,2019-12-03 23:29:29.747,972278,,972278
NH,14708,Roger Goode's Home,281,,,Gleason Falls,Rd,,,,Hillsborough,NH,03244,,2019-11-12 02:53:00,t,73296,73296,43.142815,-71.957865,f,2019-11-12 02:53:51.817,,,972316
NH,14996,Private Residence,4,,,Forest Hill,Rd,,,,Meredith,NH,03253,6001,2019-11-27 00:20:00,t,73296,73296,43.649819,-71.532485,f,2019-11-27 00:20:26.77,972378,,972378
NH,14796,Town Pool,35,,,Clark,Rd,,,,Pittsfield,NH,03263,,2019-11-15 05:35:00,t,73296,73296,43.301718,-71.319186,f,2019-11-15 05:35:43.99,,,972426
NH,12273,Vicki Abbott's Home,459,,,Sanborn,Rd,,,,Sanbornton,NH,03269,2400,2019-07-12 18:01:00,t,73296,73296,43.55,-71.57,f,2019-07-12 18:01:18.44,972456,,972456
NH,13355,Dunkin' Donuts,23,,,Allenstown,Rd,,,,Allenstown,NH,03275,2202,2019-09-13 23:12:00,t,73296,73296,43.12155,-71.442685,f,2019-09-13 23:11:58.62,,,972189
NH,14239,Dunkin' Donuts,16,,,Sheep Davis,Rd,,,,Pembroke,NH,03275,3720,2019-10-17 23:41:00,t,73296,73296,43.179774,-71.488505,f,2019-11-12 19:15:56.427,,,972421
NH,13431,501 Bean Hill Rd Unit 33,501,,,Bean Hill,Rd,,Unit,33,Northfield,NH,03276,4304,2019-09-17 19:57:00,t,73296,73296,43.410013,-71.55294,f,2019-09-25 00:32:49.517,972413,,972413
NH,15050,Private Residence,433,,,Burnt Hill,Rd,,,,Warner,NH,03278,4504,2019-12-03 18:35:00,t,73296,73296,43.276379,-71.793972,f,2019-12-14 03:49:42.283,972491,,972491
NH,12864,Weare Public Library,10,,,Flanders Memorial,Rd,,,,Weare,NH,03281,4902,2019-08-13 18:54:00,t,73296,73296,43.079162,-71.7532,f,2019-11-06 21:19:36.167,972495,,972495
NH,14995,47 Dudley Brook Rd,47,,,Dudley Brook,Rd,,,,Weare,NH,03281,4415,2019-11-26 23:27:00,t,73296,73296,43.086703,-71.791537,f,2019-12-05 22:48:34.13,972495,,972495
NH,12866,Weare Public Library,10,,,Flanders Memorial,Rd,,,,Weare,NH,03281,4902,2019-08-13 19:06:00,t,73296,73296,43.079162,-71.7532,f,2019-08-13 19:06:27.947,972495,,972495
NH,12863,Weare Public Library,10,,,Flanders Memorial,Rd,,,,Weare,NH,03281,4902,2019-08-13 18:46:00,t,73296,73296,43.079162,-71.7532,f,2019-08-13 18:53:49.967,972495,2019-08-13 18:53:00,972495
NH,14795,Panera Bread,75,,,Fort Eddy,Rd,,,,Concord,NH,03301,7405,2019-11-15 05:21:00,t,73296,73296,43.214073,-71.532384,f,2019-12-11 19:33:29.717,,,972240
NH,13349,Generations Farm,44,,,Graham,Rd,,,,Concord,NH,03301,6900,2019-09-13 21:26:00,t,73296,73296,43.287437,-71.536508,f,2019-09-22 01:05:43.433,972246,,972246
NH,14071,488 Shaker Road,488,,,Shaker,Rd,,,,Concord,NH,03301,6928,2019-10-10 23:43:00,t,73296,73296,43.288083,-71.518509,f,2019-10-12 18:31:17.087,972246,,972246
NH,15061,91 Kenney Rd,91,,,Kenney,Rd,,,,Loudon,NH,03307,1702,2019-12-03 20:54:00,t,73296,73296,43.367315,-71.423426,f,2019-12-03 20:54:59.40,972357,,972357
NH,15010,92 Kenney Rd,92,,,Kenney,Rd,,,,Loudon,NH,03307,1702,2019-11-27 18:00:00,t,73296,73296,43.365855,-71.422024,f,2019-12-03 20:36:17.593,972357,,972357
NH,15361,Stonewall Farm,242,,,Chesterfield,Rd,,,,Keene,NH,03431,2156,2019-12-17 22:55:00,t,73296,73296,42.931307,-72.341434,f,2019-12-17 23:27:40.413,972335,,972335
NH,12974,Secords Ice Cream,919,,W,Swanzey,Rd,,,,Swanzey,NH,03446,3222,2019-08-20 19:36:00,t,73296,73296,42.855538,-72.337891,f,2019-08-20 19:36:25.04,972480,,972480
NH,15292,Melody's Home,89,,,Old Dublin,Rd,,,,Hancock,NH,03449,5814,2019-12-11 20:11:00,t,73296,73296,42.971657,-72.000053,f,2019-12-18 16:42:30.793,972308,,972308
NH,14346,Hinsdale Public Library,122,,,Brattleboro,Rd,,,,Hinsdale,NH,03451,,2019-10-23 17:51:00,t,73296,73296,42.785378,-72.497073,f,2020-01-04 00:00:15.887,,,972317
NH,14024,Heidi & Tal's Home,816,,,Nelson,Rd,,,,Nelson,NH,03457,5341,2019-10-09 18:05:00,t,73296,73296,42.997139,-72.141805,f,2020-01-05 03:23:07.23,972399,,972399
NH,12542,Pancho's Pizza,1,,,Jaffrey,Rd,,,,Peterborough,NH,03458,1707,2019-07-26 22:30:00,t,73296,73296,42.867632,-71.955274,f,2019-07-26 22:29:46.20,,,972422
NH,14884,Noone Falls,50,,,Jaffrey,Rd,,,,Peterborough,NH,03458,1706,2019-11-19 22:13:00,t,73296,73296,42.859983,-71.962074,f,2019-12-19 22:46:55.34,972422,,972422
NH,14706,Pheasant Wood Center,50,,,Pheasant,Rd,,,,Peterborough,NH,03458,2110,2019-11-12 00:38:00,t,73296,73296,42.907433,-71.936763,f,2019-11-12 00:39:01.403,972422,,972422
NH,14994,Dianne's Home,19,,,Hunter Farm,Rd,,,,Peterborough,NH,03458,2022,2019-11-26 22:37:00,t,73296,73296,42.88988,-71.967556,f,2019-12-17 21:46:23.96,972422,,972422
NH,12610,MaxT Makerspace,49,,,Vose Farm,Rd,,,,Peterborough,NH,03458,2152,2019-07-31 23:08:00,t,73296,73296,42.915493,-71.932272,f,2019-07-31 23:08:28.357,,,972422
NH,13003,Masons Home,395,,,Old Greenfield,Rd,,,,Peterborough,NH,03458,1243,2019-08-22 15:12:00,t,73296,73296,42.913695,-71.905762,f,2019-08-22 15:13:06.01,972422,,972422
NH,14440,Dickler Home,97,,,Old Jaffrey,Rd,,,,Rindge,NH,03461,5024,2019-10-29 14:56:00,t,73296,73296,42.783736,-72.041245,f,2020-01-05 03:15:35.76,972438,,972438
NH,15276,Lynn's Home,28,,,Jowders Cove,Rd,,,,Rindge,NH,03461,5145,2019-12-10 23:15:00,t,73296,73296,42.779379,-72.021955,f,2019-12-11 19:51:55.493,972438,,972438
NH,12963,Westmoreland Public Library,33,,S,Village,Rd,,,,Westmoreland,NH,03467,,2019-08-20 16:19:00,t,73296,73296,42.963168,-72.439474,f,2019-10-13 23:07:10.633,,,972499
NH,12515,Berlin Trails Inn,13,,,Bisson,Rd,,,,Berlin,NH,03570,1567,2019-07-26 02:09:00,t,73296,73296,44.514146,-71.186092,f,2019-07-26 02:09:19.303,972208,,972208
NH,12777,White Mountain Chalet,161,,E,Milan,Rd,,,,Berlin,NH,03570,3553,2019-08-08 22:25:00,t,73296,73296,44.516125,-71.151246,f,2019-08-08 22:25:18.52,972208,,972208
NH,15582,Sally Craft's House,120,,,Reed,Rd,,,NH3584-3323,Lancaster,NH,03584,3323,2020-01-03 21:20:00,t,73296,73296,44.46425,-71.563335,f,2020-01-03 21:20:11.683,972344,,972344
NH,14417,Sarah Connolly's House (Clarksville),35,,,West,Rd,,,,Clarksville,NH,03592,7107,2019-10-27 19:53:00,t,73296,73296,45.000778,-71.476376,f,2019-10-27 19:53:17.723,972234,,972234
NH,13863,Mountain View Grand Hotel,101,,,Mountain View,Rd,,,,Whitefield,NH,03598,3149,2019-10-02 21:14:00,t,73296,73296,44.399092,-71.588221,f,2019-10-02 21:15:23.033,,,972500
NH,15563,Whitefield,187,,,Lancaster,Rd,,,,Whitefield,NH,03598,,2020-01-03 00:14:00,t,73296,73296,44.384864,-71.603956,f,2020-01-03 00:14:34.137,,,972500
NH,15360,395 Dalton Rd,395,,,Dalton,Rd,,,,Dalton,NH,03598,5708,2019-12-17 22:49:00,t,73296,73296,44.405601,-71.722311,f,2019-12-17 22:49:56.61,,,972250
NH,13435,1462 S Hemlock Rd,1462,,S,Hemlock,Rd,,,,Charlestown,NH,03603,4848,2019-09-17 23:05:00,t,73296,73296,43.202527,-72.368358,f,2019-09-25 00:32:49.517,972226,,972226
NH,14409,Monarch Farms,519,,,Jarvis Hill,Rd,,,,Claremont,NH,03743,4417,2019-10-27 17:22:00,t,73296,73296,43.365135,-72.385438,f,2019-10-27 17:22:22.947,972232,,972232
NH,13386,Doug Deatt's House,1,,,Bridgman,Rd,,,,Hanover,NH,03755,1301,2019-09-15 18:58:00,t,73296,73296,43.720994,-72.270689,f,2019-09-21 01:08:07.82,972309,,972309
NH,15428,"Grand Ballroom, Fireside Inn & Suites",25,,,Airport,Rd,,,,West Lebanon,NH,03784,1685,2019-12-21 15:46:00,t,73296,73296,43.62934,-72.317633,f,2019-12-21 15:55:02.48,,,972347
NH,13351,Becky Mulkern's House,200,,E,Side,Rd,,,,Conway,NH,03818,,2019-09-13 22:15:00,t,73296,73296,43.986239,-71.113155,f,2019-09-25 00:04:00.363,,,972247
NH,12725,Bernie Sanders 2020 Conway Office,90,,,Odell Hill,Rd,,,,Conway,NH,03818,4401,2019-08-07 15:36:00,t,73296,73296,43.989585,-71.220027,f,2020-01-02 19:37:30.95,972247,,972247
NH,15429,Dover Lodge of Elks #184,282,,,Durham,Rd,,,,Dover,NH,03820,5301,2019-12-21 15:53:00,t,73296,73296,43.160231,-70.893051,f,2019-12-27 23:59:51.63,,,972361
NH,15070,The Works Café,5,,,Mill,Rd,,,,Durham,NH,03824,3046,2019-12-03 23:40:00,t,73296,73296,43.133582,-70.92598,f,2019-12-04 18:29:36.203,,,972270
NH,13398,The Waysmeet Center,15,,,Mill,Rd,,,,Durham,NH,03824,3013,2019-09-16 16:47:00,t,73296,73296,43.132525,-70.927925,f,2019-09-22 23:03:55.453,972270,,972270
NH,15064,Dunkin',304,,,Sandown,Rd,,,,East Hampstead,NH,03826,2409,2019-12-03 22:11:00,t,73296,73296,42.891969,-71.143666,f,2019-12-04 21:29:53.87,972305,,972305
NH,13688,Rockingham County Rehabilitation and Nursing Cente,119,,,North,Rd,,,,Brentwood,NH,03833,6624,2019-09-27 00:00:00,t,73296,73296,43.01173,-71.05302,f,2019-09-27 00:00:03.797,972214,,972214
NH,14005,Exeter Field Office,104,,,Epping,Rd,,,,Exeter,NH,03833,2446,2019-10-08 21:44:00,t,73296,73296,42.988432,-70.968184,f,2020-01-05 03:10:03.577,,,972280
NH,14517,Weeks Public Library,36,,,Post,Rd,,,,Greenland,NH,03840,2312,2019-10-31 18:58:00,t,73296,73296,43.035326,-70.832695,f,2019-10-31 18:58:35.74,972301,,972301
NH,15535,Accents In Glass,103,,,Timber Swamp,Rd,,,,Hampton,NH,03842,1747,2020-01-01 00:55:00,t,73296,73296,42.947804,-70.869146,f,2020-01-01 01:05:07.86,972306,,972306
NH,15534,Kay's Bakery and Cafe,325,,,Lafayette,Rd,,,,Hampton,NH,03842,2202,2020-01-01 00:44:00,t,73296,73296,42.937599,-70.83773,f,2020-01-01 00:44:18.06,,,972306
NH,15146,75 South Rd,75,,,South,Rd,,,,North Hampton,NH,03862,2045,2019-12-08 01:51:00,t,73296,73296,42.96529,-70.84413,f,2019-12-11 21:07:13.457,972412,,972412
NH,15430,Recital Hall at the Timberlane Performing Arts Cen,40,,,Greenough,Rd,,,,Plaistow,NH,03865,2724,2019-12-21 15:58:00,t,73296,73296,42.845038,-71.114134,f,2019-12-27 20:18:36.793,,,972428
NH,14020,Panera Bread,4,,,Plaistow,Rd,,,,Plaistow,NH,03865,4806,2019-10-09 16:43:00,t,73296,73296,42.815939,-71.104902,f,2019-12-13 22:36:13.73,,,972428
NH,12238,Potter's House Bakery & Cafe,10,,,Chestnut Hill,Rd,,,,Rochester,NH,03867,5117,2019-07-09 23:03:00,t,73296,73296,43.317023,-70.978609,f,2019-12-04 19:21:51.56,,,972443
NH,12298,Justin's House,291,,,Washington,Rd,,,,Rye,NH,03870,2457,2019-07-16 21:25:00,t,73296,73296,43.016113,-70.75748,f,2019-07-16 21:25:15.08,972448,,972448
NH,14381,Rye Public Library,581,,,Washington,Rd,,,,Rye,NH,03870,2344,2019-10-24 21:49:00,t,73296,73296,43.011654,-70.773466,f,2019-11-06 21:20:59.55,972448,,972448
NH,15104,404 Sagamore Rd,404,,,Sagamore,Rd,,,,Rye,NH,03870,2027,2019-12-05 17:52:00,t,73296,73296,43.029961,-70.751004,f,2019-12-05 17:52:07.967,972448,,972448
NH,12242,Seabrook Penera Bread,700,,,Lafayette,Rd,,,,Seabrook,NH,03874,6202,2019-07-10 17:54:00,t,73296,73296,42.89532,-70.8712,f,2019-10-24 01:05:51.76,,,972459
NH,12452,Wolfeboro Art Center,21,,,Mcmanus,Rd,,,,Wolfeboro,NH,03894,4451,2019-07-23 23:20:00,t,73296,73296,43.582304,-71.189308,f,2019-07-23 23:20:38.027,,,972506
NH,14077,Private Home in Bangor (Fairmount Park area),90,,,Royal,Rd,,,,Bangor,ME,04401,5825,2019-10-11 15:58:00,t,73296,73296,44.797451,-68.795703,f,2019-10-11 15:59:18.803,,2019-10-11 15:59:00,972498
NH,14076,Private Home in Bangor (Fairmount Park area),90,,,Royal,Rd,,,,Bangor,ME,04401,5825,2019-10-11 15:57:00,t,73296,73296,44.797451,-68.795703,f,2019-10-11 16:06:08.003,,,972498
NH,14195,Dark River Park Montpelier,20,,,Dog River,Rd,,,,Montpelier,VT,05602,9666,2019-10-16 18:28:00,t,73296,73296,44.255011,-72.594889,f,2019-10-16 18:29:08.70,,,972387
NH,14490,UMass Amherst,650,,N,Pleasant,St,,,,Amherst,MA,01003,1100,2019-10-30 17:37:00,t,73296,73296,42.390958,-72.526041,f,2019-10-30 17:37:01.117,,,972503
NH,14773,Haymarket,185,,,Main,St,,,,Northampton,MA,01060,3147,2019-11-14 18:02:00,t,73296,73296,42.318331,-72.631741,f,2019-11-14 18:02:50.253,,,972503
NH,14669,170 Main,170,,,Main,St,,,,Greenfield,MA,01301,3210,2019-11-08 23:58:00,t,73296,73296,42.587934,-72.603376,f,2019-11-12 21:52:05.14,,,972317
NH,13230,Meriamak Vally,34,,,Broad,St,,,,Merrimac,MA,01860,2008,2019-09-04 22:14:00,t,73296,73296,42.832582,-71.000843,f,2019-10-16 02:08:58.567,,,972411
NH,13342,Brenda's House,764,,,Main,St,,,,Rowley,MA,01969,1116,2019-09-13 18:34:00,t,73296,73296,42.749471,-70.855766,f,2019-09-20 02:00:56.61,,,972459
NH,14187,Northeastern University,1155,,,Tremont,St,,,,Boston,MA,02120,2013,2019-10-16 18:05:00,t,73296,73296,42.334974,-71.088947,f,2019-10-16 18:04:46.813,,,972420
NH,15577,Providence Station,100,,,Gaspee,St,,,,Providence,RI,02903,1164,2020-01-03 19:09:00,t,73296,73296,41.82922,-71.413331,f,2020-01-05 01:16:25.963,,,972327
NH,13669,Smyth Public Library,55,,,High,St,,,,Candia,NH,03034,2764,2019-09-26 18:25:00,t,73296,73296,43.06208,-71.29172,f,2019-09-26 18:25:21.637,,,972222
NH,13662,Harvey-Mitchell Library,151,,,Main,St,,,,Epping,NH,03042,2440,2019-09-26 18:14:00,t,73296,73296,43.039093,-71.073093,f,2019-11-26 23:38:15.34,972277,,972277
NH,12805,Apotheca,24,,,Main,St,,,,Goffstown,NH,03045,0015,2019-08-09 19:57:00,t,73296,73296,43.018533,-71.60012,f,2019-08-09 19:58:17.35,,,972293
NH,14379,Roy Park,31,,,Rosemont,St,,,,Goffstown,NH,03045,,2019-10-24 21:06:00,t,73296,73296,,,f,2019-10-24 21:08:20.997,,,972186
NH,13223,The Village Trestle,25,,,Main,St,,,,Goffstown,NH,03045,1842,2019-09-04 19:55:00,t,73296,73296,43.018664,-71.599416,f,2019-09-04 19:55:08.14,,,972293
NH,13353,Andrew's House,82,,,Main,St,,,,Hollis,NH,03049,6547,2019-09-13 23:00:00,t,73296,73296,42.732466,-71.590229,f,2019-09-20 01:05:00.04,972319,,972319
NH,13433,6 Coll St,6,,,Coll,St,,,,Hudson,NH,03051,2812,2019-09-17 21:42:00,t,73296,73296,42.759427,-71.424314,f,2019-09-21 23:30:51.86,972327,,972327
NH,12138,Greater Nashua Bernie Campaign Office,77,,,Derry,St,,Unit,B1,Hudson,NH,03051,3760,2019-07-02 19:00:00,t,73296,73296,42.7746,-71.44432,f,2019-12-28 02:21:32.197,,,972327
NH,13850,Greater Nashua Bernie Campaign Office,77,,,Derry,St,,,,Hudson,NH,03051,6000,2019-10-02 19:13:00,t,73296,73296,42.775293,-71.443612,f,2019-10-16 19:05:15.127,,2019-10-16 19:05:00,972327
NH,14199,Greater Nashua Bernie Campaign Office,77,,,Derry,St,,,,Hudson,NH,03051,6000,2019-10-16 19:07:00,t,73296,73296,42.775293,-71.443612,f,2019-10-16 19:14:05.547,,2019-10-16 19:13:00,972327
NH,13928,Mary Ellen's Apartment,95,,,Powers,St,,,,Milford,NH,03055,4935,2019-10-05 16:33:00,t,73296,73296,42.824061,-71.638096,f,2019-10-10 01:04:02.04,972384,,972384
NH,13241,Milford Trails Apt,95,,,Powers,St,,Apt,101,Milford,NH,03055,4949,2019-09-05 17:07:00,t,73296,73296,42.824061,-71.638096,f,2019-12-04 00:33:42.623,972384,,972384
NH,13610,Union Coffee Company,42,,,South,St,,,,Milford,NH,03055,3783,2019-09-24 20:06:00,t,73296,73296,42.834866,-71.648755,f,2019-12-05 18:05:56.67,,,972384
NH,13069,Milford High School,100,,,West,St,,,,Milford,NH,03055,4888,2019-08-28 18:38:00,t,73296,73296,42.826323,-71.660094,f,2019-08-28 18:37:57.673,,,972384
NH,12964,Daland Memorial Library,5,,N,Main,St,,,,Mont Vernon,NH,03057,,2019-08-20 17:07:00,t,73296,73296,42.895193,-71.674663,f,2019-08-20 17:07:41.243,,,972388
NH,14668,Liquid Therapy,14,,,Court,St,,,,Nashua,NH,03060,3440,2019-11-08 23:48:00,t,73296,73296,42.762427,-71.464406,f,2019-11-08 23:48:17.193,,,972393
NH,13591,184 Main St,184,,,Main,St,,,,Nashua,NH,03060,2748,2019-09-23 21:24:00,t,73296,73296,42.759796,-71.464591,f,2019-09-24 00:32:59.503,972393,,972393
NH,12264,Nashua Public Library,2,,,Court,St,,,,Nashua,NH,03060,3440,2019-07-11 19:31:00,t,73296,73296,42.763079,-71.464695,f,2019-12-11 19:12:29.323,,,972393
NH,15318,R'evolution Sports Bar & Restaurant,8,,,Temple,St,,,,Nashua,NH,03060,3443,2019-12-13 00:14:00,t,73296,73296,42.761827,-71.465063,f,2019-12-17 19:58:56.20,,,972393
NH,13067,Nashua Community College,505,,,Amherst,St,,,,Nashua,NH,03063,1026,2019-08-28 18:10:00,t,73296,73296,42.795369,-71.523721,f,2019-12-06 22:41:12.517,,,972391
NH,14947,Jo's House,53,,,Abbott,St,,Apt,1,Nashua,NH,03064,2158,2019-11-22 23:26:00,t,73296,73296,42.76956,-71.469568,f,2019-11-22 23:31:02.727,972392,,972392
NH,13885,Unitarian-Universalist Church of Nashua,58,,,Lowell,St,,,,Nashua,NH,03064,2268,2019-10-03 15:43:00,t,73296,73296,42.764794,-71.463298,f,2019-10-03 15:43:30.943,,,972392
NH,13573,Cathy's House,22,,,Mill,St,,,,New Boston,NH,03070,3825,2019-09-22 16:10:00,t,73296,73296,42.974888,-71.692932,f,2019-09-28 00:36:41.293,972400,,972400
NH,13455,Dudley-Tucker Library,6,,,Epping,St,,,,Raymond,NH,03077,2529,2019-09-18 19:37:00,t,73296,73296,43.03765,-71.18074,f,2019-11-17 22:10:10.693,972436,,972436
NH,14637,Raymond Democrats' Office,61,,,Main,St,,,,Raymond,NH,03077,2322,2019-11-07 19:09:00,t,73296,73296,43.035736,-71.182518,f,2019-12-05 00:18:14.307,,,972436
NH,12873,Kelley Library,234,,,Main,St,,,,Salem,NH,03079,3148,2019-08-13 22:00:00,t,73296,73296,42.784209,-71.211001,f,2019-11-05 22:24:53.49,972452,,972452
NH,13137,SNHU Arena,555,,,Elm,St,,,,Manchester,NH,03101,2535,2019-08-31 14:55:00,t,73296,73296,42.986456,-71.461781,f,2019-08-31 14:54:42.343,,,972365
NH,13447,Veteran's Memorial Park,723,,,Elm,St,,,,Manchester,NH,03101,2103,2019-09-18 17:03:00,t,73296,73296,43.000631,-71.464364,f,2019-09-18 17:03:09.49,,,972365
NH,13708,Boards and Brews,941,,,Elm,St,,,,Manchester,NH,03101,2003,2019-09-28 15:05:00,t,73296,73296,42.99135,-71.46298,f,2019-09-28 15:05:53.117,972365,,972365
NH,12582,Center for New Americans,72,,,Concord,St,,,,Manchester,NH,03101,1806,2019-07-30 21:26:00,t,73296,73296,42.992857,-71.460592,f,2019-07-30 21:25:56.277,972365,,972365
NH,13291,Central Alehouse,23,,,Central,St,,,,Manchester,NH,03101,2423,2019-09-11 01:57:00,t,73296,73296,42.98789,-71.46213,f,2019-09-11 01:57:06.137,,,972365
NH,13434,Suraj's House,634,,,Montgomery,St,,,,Manchester,NH,03102,3026,2019-09-17 21:51:00,t,73296,73296,42.99617,-71.481005,f,2019-09-21 23:09:02.61,972373,,972373
NH,14999,Dunkin' Donuts,947,,,2nd,St,,,,Manchester,NH,03102,5215,2019-11-27 02:12:00,t,73296,73296,42.968143,-71.480351,f,2019-12-11 18:54:29.18,,,972372
NH,13092,LT's House,86,,,Liberty,St,,,,Manchester,NH,03104,3117,2019-08-29 19:25:00,t,73296,73296,43.005786,-71.46078,f,2019-09-27 22:44:01.24,972365,,972365
NH,13531,Test Location34,86,,,Liberty,St,,#,2,Manchester,NH,03104,3117,2019-09-21 01:39:00,t,73296,73296,43.005786,-71.46078,f,2019-09-25 15:30:18.07,972365,,972365
NH,15069,1750 Elm St,1750,,,Elm,St,,,,Manchester,NH,03104,2907,2019-12-03 23:17:00,t,73296,73296,43.003687,-71.465788,f,2019-12-03 23:53:39.777,,,972365
NH,14661,Manchester Field Office,853,,,Hanover,St,,,,Manchester,NH,03104,5419,2019-11-08 22:49:00,t,73296,73296,42.987636,-71.428532,t,2020-01-02 20:44:42.22,972367,,972366
NH,13692,American Legion Merrill-Follansbee Post #37,5,,,Riverside,St,,,,Hooksett,NH,03106,1521,2019-09-27 15:37:00,t,73296,73296,43.097977,-71.463796,f,2019-09-27 15:37:49.08,,,972322
NH,14743,Dunkin' (Donuts),318,,,Summer,St,,,,Bristol,NH,03222,3210,2019-11-12 22:48:00,t,73296,73296,43.597201,-71.728117,f,2020-01-03 18:38:06.20,972216,,972216
NH,15291,Cracker Barrel Store,377,,,Main,St,,,,Hopkinton,NH,03229,2675,2019-12-11 19:29:00,t,73296,73296,43.191068,-71.674612,f,2019-12-11 22:00:56.39,,,972326
NH,14865,Franklin Highschool,115,,,Central,St,,,,Franklin,NH,03235,1131,2019-11-19 17:20:00,t,73296,73296,43.441484,-71.652015,f,2019-11-19 17:20:01.063,,,972286
NH,13016,Odell Park,124,,,Memorial,St,,,,Franklin,NH,03235,1611,2019-08-22 20:45:00,t,73296,73296,43.446004,-71.650333,f,2019-11-17 00:04:28.99,,,972286
NH,14678,Pizza Chef of Franklin,418,,N,Main,St,,,,Franklin,NH,03235,1018,2019-11-10 00:04:00,t,73296,73296,43.453828,-71.659224,f,2019-12-13 22:29:25.583,972285,,972285
NH,14993,McDonald's,822,,,Central,St,,,,Franklin,NH,03235,2016,2019-11-26 22:27:00,t,73296,73296,43.447777,-71.629363,f,2019-12-28 01:12:49.207,972287,,972287
NH,13691,"New England College, Simon Center, Great Room",98,,,Bridge,St,,,,Henniker,NH,03242,3292,2019-09-27 15:26:00,t,73296,73296,43.17754,-71.821766,f,2019-12-18 18:44:39.40,,,972314
NH,14866,Hillsboro American Legion,538,,W,Main,St,,,,Hillsboro,NH,03244,5243,2019-11-19 17:23:00,t,73296,73296,43.114735,-71.940528,f,2019-11-19 17:23:08.66,972316,,972316
NH,14816,Dunkin',258,,W,Main,St,,,,Hillsboro,NH,03244,5251,2019-11-16 00:33:00,t,73296,73296,43.111122,-71.914179,f,2019-12-03 20:41:38.927,972316,,972316
NH,15059,The Roasted Root Café,5,,W,Main,St,,,,Hillsboro,NH,03244,,2019-12-03 20:39:00,t,73296,73296,43.114645,-71.895348,f,2019-12-19 22:44:43.157,,,972316
NH,12532,Carlos Cardona's Home,1487,,,Old North Main,St,,,,Laconia,NH,03246,2684,2019-07-26 21:21:00,t,73296,73296,43.554572,-71.485729,f,2019-09-24 01:17:12.663,972338,,972338
NH,13021,Leavitt Park,,,,ELM,St,,,,Laconia,NH,03246,,2019-08-23 18:44:00,t,73296,73296,43.556167,-71.474473,f,2019-08-23 18:44:18.33,,,972343
NH,13501,Belknap Country Office,143,,,Lake,St,,,,Laconia,NH,03246,2129,2019-09-20 00:31:00,t,73296,73296,43.567035,-71.447599,f,2020-01-03 22:42:01.723,972343,,972343
NH,15452,The Margate,76,,,Lake,St,,,,Laconia,NH,03246,2103,2019-12-24 16:07:00,t,73296,73296,43.56507,-71.448969,f,2019-12-24 16:07:45.15,,,972343
NH,12269,Wayfarer Cafe,626,,,Main,St,,,,Laconia,NH,03246,3443,2019-07-11 22:19:00,t,73296,73296,43.5291,-71.47105,f,2019-07-11 22:19:21.203,972341,,972340
NH,15576,McDonald's,112,,,MAIN,St,,,,Lincoln,NH,03251,,2020-01-03 18:30:00,t,73296,73296,44.037363,-71.675668,f,2020-01-03 18:39:46.98,,,972352
NH,14744,Dunkin' (donuts),217,,,Main,St,,,,New London,NH,03257,,2019-11-12 22:54:00,t,73296,73296,43.416042,-71.987206,f,2020-01-02 22:29:16.08,,,972405
NH,15095,44 Main St,44,,,Main,St,,,,Pittsfield,NH,03263,3703,2019-12-04 21:23:00,t,73296,73296,43.304747,-71.327122,f,2019-12-21 00:12:43.353,972426,,972426
NH,15288,Off Campus Rentals,16,,,Highland,St,,,,Plymouth,NH,03264,1143,2019-12-11 19:21:00,t,73296,73296,43.757862,-71.690338,f,2020-01-03 18:43:25.433,972429,,972429
NH,13445,HUB Fireplace Lounge,17,,,High,St,,,,Plymouth,NH,03264,1595,2019-09-18 16:51:00,t,73296,73296,43.76012,-71.688555,f,2019-09-25 23:01:50.61,972429,,972429
NH,12752,Plymouth Regional Senior Center,8,,,Depot,St,,,,Plymouth,NH,03264,1618,2019-08-08 15:05:00,t,73296,73296,43.756373,-71.686848,f,2019-08-08 15:05:49.69,,,972429
NH,12658,Plymouth Field Office,42,,,Main,St,,,,Plymouth,NH,03264,6408,2019-08-02 19:04:00,t,73296,73296,43.755531,-71.687946,t,2020-01-04 02:14:00.413,972429,,972429
NH,15103,Green Street,,,,GREEN,St,,,,Plymouth,NH,03264,,2019-12-05 16:41:00,t,73296,73296,43.758085,-71.686639,f,2019-12-05 16:41:33.993,,,972429
NH,13650,Silver Center for the Arts Amphitheater,114,,,Main,St,,,NH3264,Plymouth,NH,03264,1544,2019-09-26 00:28:00,t,73296,73296,43.758826,-71.687619,f,2019-09-26 00:28:58.437,,,972429
NH,12748,Plymouth State University Hartman Union Building,17,,,HIGHLAND,St,,,,Plymouth,NH,03264,,2019-08-08 15:00:00,t,73296,73296,43.762224,-71.705178,f,2019-08-08 15:00:41.613,,,972429
NH,12268,Pease Public Library,1,,,Russell,St,,,,Plymouth,NH,03264,1414,2019-07-11 21:55:00,t,73296,73296,43.75696,-71.688809,f,2019-07-11 21:55:51.733,972429,,972429
NH,14182,Pembroke Town Library,313,,,Pembroke,St,,,,Pembroke,NH,03275,3234,2019-10-16 17:31:00,t,73296,73296,43.15038,-71.46017,f,2019-12-17 20:29:36.45,972421,,972421
NH,12710,Pembroke Park,,,,Pembroke & Broadway,St,,,,Pembroke,NH,03275,,2019-08-06 16:02:00,t,73296,73296,43.15,-71.46,f,2019-08-06 16:02:21.99,,,972421
NH,14485,Riverfront Park,322,,W,Main,St,,,,Tilton,NH,03276,5037,2019-10-30 01:30:00,t,73296,73296,43.443185,-71.593529,f,2019-11-04 00:04:32.52,,,972484
NH,15290,Hall Memorial Library,18,,,Park,St,,,,Northfield,NH,03276,1543,2019-12-11 19:28:00,t,73296,73296,43.442067,-71.592586,f,2019-12-31 20:17:39.03,,,972413
NH,14992,Dunkin',541,,W,Main,St,,,,Tilton,NH,03276,5014,2019-11-26 22:15:00,t,73296,73296,43.445553,-71.612649,f,2019-12-11 19:13:54.183,,,972484
NH,12272,MainStreet BookEnds,16,,E,Main,St,,,,Warner,NH,03278,4421,2019-07-12 17:49:00,t,73296,73296,43.277205,-71.809288,f,2019-12-04 07:52:23.487,972491,,972491
NH,12271,White Park,,,,Cross Section Of Rowell & White,St,,,,Concord,NH,03301,,2019-07-12 17:43:00,t,73296,73296,43.206179,-71.549845,f,2019-07-12 17:43:14.67,,,972241
NH,14872,The Barley House,132,,N,Main,St,,,NH3301,Concord,NH,03301,4917,2019-11-19 18:47:00,t,73296,73296,43.207838,-71.536412,f,2019-11-19 18:47:48.49,972240,,972240
NH,14500,Dunkin' Donuts,412,,S,Main,St,,,,Concord,NH,03301,3466,2019-10-30 22:02:00,t,73296,73296,43.176759,-71.530503,f,2019-12-24 17:08:43.123,,,972212
NH,15432,New Hampshire Legislative Office Building,33,,N,State,St,,,,Concord,NH,03301,6334,2019-12-21 18:00:00,t,73296,73296,43.206593,-71.539475,f,2019-12-21 20:58:28.373,,,972242
NH,12409,Concord Office,4,,S,State,St,,,,Concord,NH,03301,3720,2019-07-21 18:39:00,t,73296,73296,43.20327,-71.537019,t,2020-01-04 03:40:50.41,,,972242
NH,14787,Home of Nancy & Bill Marston,39,,,Auburn,St,,,,Concord,NH,03301,3006,2019-11-14 23:22:00,t,73296,73296,43.207464,-71.553821,f,2019-11-20 21:16:07.513,972241,,972241
NH,14466,State House Lawn,107,,N,Main,St,,,,Concord,NH,03301,4951,2019-10-29 19:56:00,t,73296,73296,43.207009,-71.537758,f,2019-12-04 23:06:05.733,,,972240
NH,15433,Concord High School Auditorium,170,,,Warren,St,,,,Concord,NH,03301,2942,2019-12-21 19:08:00,t,73296,73296,43.200344,-71.55116,f,2019-12-27 20:18:36.793,,,972241
NH,14702,Alan's of Boscawen,133,,N,Main,St,,,,Boscawen,NH,03303,1106,2019-11-11 19:21:00,t,73296,73296,43.290801,-71.604973,f,2019-11-15 05:37:28.44,972211,,972211
NH,13192,Keene Bernie Office,294,,,West,St,,Ste,4B,Keene,NH,03431,2400,2019-09-03 19:21:00,t,73296,73296,42.93255,-72.28897,t,2019-12-26 21:21:35.23,,,972335
NH,14944,Keene Bernie Office,294,,,West,St,,,,Keene,NH,03431,2400,2019-11-22 21:32:00,t,73296,73296,42.931605,-72.289018,f,2020-01-03 22:07:25.407,,,972335
NH,14815,Cheshire County Courthouse,12,,,Court,St,,,,Keene,NH,03431,3402,2019-11-16 00:02:00,t,73296,73296,42.934343,-72.27942,f,2019-11-16 00:02:34.49,972334,,972334
NH,14656,"Keene State Latern Room, Young Student Center",48,,,Madison,St,,,,Keene,NH,03431,,2019-11-08 20:55:00,t,73296,73296,42.927884,-72.281866,f,2019-11-08 20:54:50.933,,,972335
NH,12229,Keene Public Library,60,,,Winter,St,,,,Keene,NH,03431,3322,2019-07-09 20:48:00,t,73296,73296,42.933643,-72.281382,f,2019-07-09 20:48:31.007,,,972334
NH,12266,Keene Unitarian Universalist Church,69,,,Washington,St,,,,Keene,NH,03431,3130,2019-07-11 20:34:00,t,73296,73296,42.936031,-72.276823,f,2019-07-11 20:34:09.237,,,972332
NH,12508,Beaver Brook Lodge,181,,,Marlboro,St,,,,Keene,NH,03431,4155,2019-07-25 19:42:00,t,73296,73296,42.926429,-72.271743,f,2019-07-25 19:43:16.737,972331,,972331
NH,13014,Keene Office,298,,,West,St,,,,Keene,NH,03431,2441,2019-08-22 20:00:00,t,73296,73296,42.93187,-72.28904,f,2019-12-22 20:08:47.39,,,972335
NH,14356,"Mabel Brown Room, Keene State College",48,,,Madison,St,,,,Keene,NH,03431,,2019-10-23 21:31:00,t,73296,73296,42.927884,-72.281866,f,2019-10-23 21:33:21.373,,,972335
NH,13452,Michele's House,25,,,Beech,St,,,,Keene,NH,03431,3203,2019-09-18 18:50:00,t,73296,73296,42.936022,-72.270737,f,2019-09-23 23:33:59.593,972332,,972332
NH,13072,Keene State Student Center,229,,,Main,St,,,,Keene,NH,03435,0001,2019-08-28 18:57:00,t,73296,73296,42.927017,-72.277535,f,2019-12-03 23:35:32.167,972331,,972331
NH,15270,Antrim Town of Tuttle Library,45,,,Main,St,,,,Antrim,NH,03440,,2019-12-10 22:32:00,t,73296,73296,43.027942,-71.937843,f,2019-12-13 19:09:54.373,,,972194
NH,14057,Stratton Free Library,9,,,Main,St,,,,Swanzey,NH,03446,,2019-10-10 18:06:00,t,73296,73296,,,f,2019-10-13 23:09:25.163,,,972186
NH,15398,Hancock Public Library,25,,,Main,St,,,,Hancock,NH,03449,,2019-12-19 16:47:00,t,73296,73296,42.973223,-71.982293,f,2019-12-19 16:47:19.843,,,972308
NH,15486,Fiddleheads Cafe,28,,,Main,St,,,,Hancock,NH,03449,,2019-12-27 21:47:00,t,73296,73296,42.972732,-71.982262,f,2020-01-03 00:41:40.10,,,972308
NH,12860,Hinsdale Community Center,19,,,Main,St,,,,Hinsdale,NH,03451,,2019-08-13 18:39:00,t,73296,73296,42.786247,-72.482697,f,2019-08-13 18:39:13.96,,,972317
NH,12603,Peterborough Town Library,2,,,Concord,St,,,,Peterborough,NH,03458,1511,2019-07-31 18:22:00,t,73296,73296,42.877624,-71.947815,f,2019-11-06 20:12:42.90,972422,,972422
NH,13132,Peterborough Town Hall,1,,,Grove,St,,,,Peterborough,NH,03458,1422,2019-08-30 20:32:00,t,73296,73296,42.877685,-71.950471,f,2019-08-30 20:32:24.917,972422,,972422
NH,13074,Putnam Park,,,,GROVE,St,,,,Peterborough,NH,03458,,2019-08-28 19:11:00,t,73296,73296,42.870091,-71.952822,f,2019-08-28 19:11:45.427,,,972422
NH,14791,Rindge Public Library,203,,,Main,St,,,,Rindge,NH,03461,5722,2019-11-15 02:06:00,t,73296,73296,42.748735,-72.009,f,2019-11-15 02:06:02.037,972438,,972438
NH,14742,Gay-Kimball Library,10,,S,Main,St,,,,Troy,NH,03465,,2019-11-12 22:45:00,t,73296,73296,42.824426,-72.18133,f,2019-11-20 15:35:03.083,,,972485
NH,14149,Conant Public Library,111,,,Main,St,,,,Winchester,NH,03470,3132,2019-10-15 20:30:00,t,73296,73296,42.77255,-72.383692,f,2019-11-06 23:05:02.94,,,972503
NH,12738,Littleton Opera House,2,,,Union,St,,,,Littleton,NH,03561,5709,2019-08-07 19:41:00,t,73296,73296,44.30583,-71.769847,f,2019-08-07 19:41:14.277,972355,,972355
NH,14952,Alburritos,106,,,Main,St,,,,Littleton,NH,03561,4052,2019-11-23 04:43:00,t,73296,73296,44.307155,-71.774476,f,2019-11-23 04:43:11.857,972355,,972355
NH,13005,Dunkin' Donuts,148,-150,,MAIN,St,,,,Littleton,NH,03561,,2019-08-22 15:31:00,t,73296,73296,44.30772,-71.775682,f,2019-08-22 15:31:43.74,,,972355
NH,14563,Miller's Cafe and Bakery,16,,,Mill,St,,,,Littleton,NH,03561,3829,2019-11-03 16:26:00,t,73296,73296,44.305793,-71.771684,f,2020-01-04 02:51:13.357,,,972355
NH,14953,Alburrito's,106,,,Main,St,,,,Littleton,NH,03561,4052,2019-11-23 04:44:00,t,73296,73296,44.307155,-71.774476,f,2019-11-23 04:44:34.16,972355,,972355
NH,14470,The Inkwell Coffee and Tea house,42,,,Mill,St,,,,Littleton,NH,03561,4069,2019-10-29 21:03:00,t,73296,73296,44.30636,-71.772959,f,2020-01-04 02:44:46.257,972355,,972355
NH,14890,Littleton Freehouse Taproom & Eatery,28,,,Cottage,St,,,,Littleton,NH,03561,5716,2019-11-20 02:41:00,t,73296,73296,44.305156,-71.770488,f,2019-11-20 02:41:45.02,972355,,972355
NH,14206,The Inkwell Coffeeshop,42,,,Mill,St,,,NH3561,Littleton,NH,03561,4069,2019-10-16 20:08:00,t,73296,73296,44.30636,-71.772959,f,2019-10-19 19:37:45.113,972355,,972355
NH,14268,Dunkin Donuts,148,,,Main,St,,,NH3561,Littleton,NH,03561,4014,2019-10-19 19:24:00,t,73296,73296,44.305793,-71.771684,f,2019-10-20 22:04:14.047,972355,,972355
NH,12638,Berlin Bernie Campaign Office,171,,,Main,St,,,,Berlin,NH,03570,2417,2019-08-02 12:57:00,t,73296,73296,44.470219,-71.180347,f,2019-12-17 23:31:30.787,,,972207
NH,14623,2015 Main St,2015,,,Main,St,,,,Bethlehem,NH,03574,,2019-11-06 22:13:00,t,73296,73296,44.280291,-71.690769,f,2019-11-07 18:37:12.877,,,972210
NH,15275,The Colonial Theater,2050,,,Main,St,,,,Bethlehem,NH,03574,,2019-12-10 23:04:00,t,73296,73296,44.279915,-71.690276,f,2020-01-04 02:44:06.673,,,972210
NH,13504,29 Parsons St,29,,,Parsons,St,,,,Colebrook,NH,03576,3192,2019-09-20 14:35:00,t,73296,73296,44.892787,-71.49448,f,2019-09-21 23:30:51.86,972235,,972235
NH,12490,Colebrook Public Library,126,,S,Main,St,,,,Colebrook,NH,03576,3603,2019-07-25 03:22:00,t,73296,73296,44.889763,-71.499388,f,2019-11-02 23:05:36.55,,,972235
NH,14590,Colebrook Post Office,21,,,Parsons,St,,,,Colebrook,NH,03576,2800,2019-11-05 19:35:00,t,73296,73296,44.893019,-71.495183,f,2019-11-05 19:36:51.043,,,972235
NH,13008,Moose Muck Coffee House,25,,,Parsons,St,,,,Colebrook,NH,03576,3185,2019-08-22 15:47:00,t,73296,73296,44.892936,-71.494974,f,2020-01-03 21:48:32.183,972235,,972235
NH,15076,Franconia Coffee House,334,,,Main,St,,,,Franconia,NH,03580,,2019-12-04 01:16:00,t,73296,73296,44.227551,-71.74878,f,2019-12-04 01:18:37.123,,,972284
NH,13481,White Mountain Cafe,212,,,Main,St,,,,Gorham,NH,03581,1543,2019-09-19 19:59:00,t,73296,73296,44.392242,-71.185514,f,2019-09-19 19:59:12.67,,,972295
NH,15325,North Country Family Restaurant,12,,,Main,St,,,,Northumberland,NH,03582,4215,2019-12-13 17:31:00,t,73296,73296,44.599222,-71.511242,f,2019-12-13 17:36:46.223,972414,,972414
NH,14765,Dunkin Donuts,196,,,Main,St,,,,Lancaster,NH,03584,3033,2019-11-14 00:57:00,t,73296,73296,44.49449,-71.57341,f,2020-01-04 23:29:08.91,972344,,972344
NH,13490,Weeks Memorial Library,128,,,Main,St,,,,Lancaster,NH,03584,3031,2019-09-19 22:37:00,t,73296,73296,44.49051,-71.56992,f,2019-09-19 22:36:46.103,,,972344
NH,14990,8 Union St,8,,,Union,St,,,,Whitefield,NH,03598,3503,2019-11-26 21:44:00,t,73296,73296,44.371916,-71.61123,f,2019-12-17 22:06:38.697,972500,,972500
NH,13300,Shedd-Porter Library,3,,,Main,St,,,,Alstead,NH,03602,,2019-09-11 17:25:00,t,73296,73296,43.148759,-72.361365,f,2019-09-11 17:25:11.68,,,972190
NH,13299,Shedd-Porter Library,3,,,Main,St,,,,Alstead,NH,03602,,2019-09-11 17:25:00,t,73296,73296,43.148759,-72.361365,f,2019-09-11 17:25:11.68,,,972190
NH,13195,Shedd-Porter Library,3,,,Main,St,,,,Alstead,NH,03602,,2019-09-03 20:03:00,t,73296,73296,43.143898,-72.362441,f,2019-11-04 00:05:46.21,,,972190
NH,14523,Walpole Town Hall,34,,,Elm,St,,,,Walpole,NH,03608,,2019-10-31 21:14:00,t,73296,73296,43.079371,-72.428542,f,2019-10-31 21:14:04.19,,,972489
NH,12869,Library of Walpole,48,,,Main,St,,,,Walpole,NH,03608,,2019-08-13 20:08:00,t,73296,73296,43.079176,-72.42553,f,2019-10-20 23:09:18.697,,,972489
NH,13073,Common Man Inn,21,,,Water,St,,,,Claremont,NH,03743,2228,2019-08-28 19:06:00,t,73296,73296,43.37406,-72.33859,f,2019-08-28 19:06:06.393,,,972231
NH,12986,Dunkin' Donuts Claremont,202,,,Washington,St,,,,Claremont,NH,03743,5510,2019-08-21 15:57:00,t,73296,73296,43.37252,-72.327053,f,2019-10-08 19:19:21.737,972233,,972233
NH,14831,Skinny Pancake,3,,,Lebanon,St,,,,Hanover,NH,03755,2158,2019-11-17 19:33:00,t,73296,73296,43.700579,-72.28874,f,2019-11-17 19:33:07.923,,,972309
NH,14625,Dirt Cowboy Cafe,7,,S,Main,St,,,,Hanover,NH,03755,2048,2019-11-06 22:44:00,t,73296,73296,43.70157,-72.28987,f,2019-11-06 22:44:30.64,,,972309
NH,13009,Colburn Park,51,,N,Park,St,,,,Lebanon,NH,03766,1317,2019-08-22 15:50:00,t,73296,73296,43.643307,-72.251777,f,2019-08-22 15:49:59.01,,,972349
NH,15431,Newport Opera House,20,,,Main,St,,,,Newport,NH,03773,1515,2019-12-21 16:16:00,t,73296,73296,43.364615,-72.172556,f,2019-12-27 20:19:29.533,,,972410
NH,12246,Portsmouth Field Office,767,,,Islington,St,,,,Portsmouth,NH,03801,7230,2019-07-10 19:20:00,t,73296,73296,43.069579,-70.772722,f,2020-01-02 18:27:50.91,,,972431
NH,13415,312 Cabot St,312,,,Cabot,St,,,,Portsmouth,NH,03801,3976,2019-09-17 01:56:00,t,73296,73296,43.073711,-70.767255,f,2019-09-19 01:36:31.86,972431,,972431
NH,14643,Flatbread Company,138,,,Congress,St,,,,Portsmouth,NH,03801,4019,2019-11-07 23:50:00,t,73296,73296,43.075725,-70.76011,f,2019-11-13 00:11:49.49,,,972430
NH,14867,South Church Unitarian Universalist Church,292,,,State,St,,,,Portsmouth,NH,03801,4007,2019-11-19 17:25:00,t,73296,73296,43.07546,-70.757583,f,2019-11-19 17:25:43.73,,,972434
NH,12408,66 Main St. Conway!,66,,,Main,St,,,,Conway,NH,03818,6163,2019-07-21 18:32:00,t,73296,73296,43.978747,-71.121274,f,2019-07-21 18:32:47.537,972247,,972247
NH,12254,Tuckerman Brewing Co.,66,,,Hobbs,St,,,,Conway,NH,03818,6251,2019-07-11 04:32:00,t,73296,73296,43.973891,-71.130099,f,2019-07-11 04:32:29.837,972247,,972247
NH,12235,Dover Field Office,16,,,6th,St,,,,Dover,NH,03820,3042,2019-07-09 22:12:00,t,73296,73296,43.200812,-70.876841,f,2020-01-03 18:14:27.06,972262,,972262
NH,12646,Adelle's Coffeehouse,5,,,Hale,St,,,,Dover,NH,03820,3712,2019-08-02 16:05:00,t,73296,73296,43.193068,-70.874969,f,2019-08-02 16:05:03.897,,,972263
NH,15250,Henry Law Park,1,,,Washington,St,,,,Dover,NH,03820,3848,2019-12-09 19:14:00,t,73296,73296,43.195277,-70.870888,f,2019-12-11 15:33:27.31,972262,,972262
NH,12236,Jake Werner's House,9,,,Horne,St,,,,Dover,NH,03820,2620,2019-07-09 22:38:00,t,73296,73296,43.204648,-70.8814,f,2019-07-09 22:38:53.377,972262,,972262
NH,13497,Dover Public Library - Lecture Hall,73,,,Locust,St,,,,Dover,NH,03820,3753,2019-09-19 23:45:00,t,73296,73296,43.192903,-70.87633,f,2019-11-20 23:09:08.973,972263,,972263
NH,14115,Memorial Union Building,83,,,Main,St,,,,Durham,NH,03824,2538,2019-10-13 20:33:00,t,73296,73296,43.135405,-70.929452,f,2019-12-12 01:43:32.12,972270,,972270
NH,12657,Breaking New Grounds,50,,,Main,St,,,,Durham,NH,03824,2503,2019-08-02 18:56:00,t,73296,73296,43.13447,-70.926381,f,2020-01-02 19:35:31.70,972270,,972270
NH,14955,University of New Hampshire,105,,,Main,St,,,,Durham,NH,03824,2512,2019-11-23 18:07:00,t,73296,73296,43.137031,-70.932628,f,2019-11-27 00:10:54.907,972270,,972270
NH,14645,46 Jewell St,46,,,Jewell,St,,,,South Hampton,NH,03827,3508,2019-11-08 00:44:00,t,73296,73296,42.874815,-70.96028,f,2019-11-08 00:44:37.667,972467,,972467
NH,13117,Me & Ollies Cafe and Bakery,64,,,Water,St,,,,Exeter,NH,03833,2431,2019-08-30 00:46:00,t,73296,73296,42.981351,-70.945811,f,2019-08-30 00:46:42.65,972280,,972280
NH,12647,Exeter Public Library,4,,,Chestnut,St,,,,Exeter,NH,03833,1850,2019-08-02 16:19:00,t,73296,73296,42.981796,-70.944533,f,2019-10-05 23:07:17.013,,,972280
NH,14006,Newmarket Public Library,1,,,Elm,St,,,,Exeter,NH,03833,2749,2019-10-08 22:03:00,t,73296,73296,42.980037,-70.948813,f,2019-11-03 22:26:40.547,972280,2019-11-03 22:26:00,972280
NH,13308,Jennifer's House,102,,,Main,St,,,,Exeter,NH,03833,2427,2019-09-11 21:43:00,t,73296,73296,42.982804,-70.960162,f,2019-09-20 23:30:38.55,972280,,972280
NH,14832,Henry Wilson Memorial School,51,,,School,St,,,,Farmington,NH,03835,3443,2019-11-17 19:38:00,t,73296,73296,43.392893,-71.070959,f,2019-11-17 19:37:44.15,972281,,972281
NH,15088,JetPack Comics,37,,,Main,St,,,,Rochester,NH,03839,5213,2019-12-04 18:44:00,t,73296,73296,43.274979,-70.979146,f,2019-12-04 18:44:53.11,972441,,972441
NH,14603,Stratham-Newfields Veterinary Hospital,8,,,Main,St,,,,Newfields,NH,03856,9998,2019-11-06 04:10:00,t,73296,73296,43.04232,-70.932652,f,2019-11-06 04:10:33.99,,,972407
NH,15369,Crackskull's Books & Cafe,86,,,Main,St,,,,Newmarket,NH,03857,1607,2019-12-18 20:16:00,t,73296,73296,43.079829,-70.936034,f,2019-12-30 02:33:50.38,,,972409
NH,13392,Newmarket Public Library,1,,,Elm,St,,,,Newmarket,NH,03857,1201,2019-09-15 22:21:00,t,73296,73296,43.080771,-70.937625,f,2019-12-06 20:24:38.333,,,972409
NH,13012,Plaistow Public Library,85,,,Main,St,,,,Plaistow,NH,03865,3010,2019-08-22 16:50:00,t,73296,73296,42.828561,-71.093058,f,2019-12-13 22:16:19.477,972428,,972428
NH,15113,Rochester Public Library,65,,S,Main,St,,,,Rochester,NH,03867,2707,2019-12-05 23:58:00,t,73296,73296,43.30214,-70.974695,f,2019-12-12 00:12:04.85,972444,,972444
NH,14638,Revolutions Taproom,61,,N,Main,St,,,,Rochester,NH,03867,1906,2019-11-07 19:31:00,t,73296,73296,43.304789,-70.977388,f,2019-12-04 19:17:17.70,972444,,972444
NH,12341,Rochester Common Park,,,S,MAIN,St,,,,Rochester,NH,03867,,2019-07-18 18:17:00,t,73296,73296,43.30027,-70.970502,f,2019-07-18 18:18:05.57,,,972444
NH,14595,Triple Elm Coffee and Ice Cream,323,,,Main,St,,,NH,Sandown,NH,03873,2647,2019-11-05 21:36:00,t,73296,73296,42.926758,-71.186859,f,2019-11-06 21:48:18.667,972457,,972457
NH,14611,Triple Elm Coffee and Ice Cream,323,,,Main,St,,,,Sandown,NH,03873,2647,2019-11-06 17:50:00,t,73296,73296,42.926758,-71.186859,f,2019-11-20 18:20:19.08,972457,,972457
NH,12399,Noble Pines Park,30,,,Noble,St,,,,Somersworth,NH,03878,2647,2019-07-20 16:59:00,t,73296,73296,43.25987,-70.866894,f,2019-10-17 00:03:19.42,,,972462
NH,15087,36 Canal St 2nd floor,36,,,Canal,St,,Fl,2,Somersworth,NH,03878,3261,2019-12-04 18:38:00,t,73296,73296,43.263705,-70.863161,f,2019-12-04 18:39:39.71,972462,,972462
NH,14651,Teatotaller,69,,,High,St,,,,Somersworth,NH,03878,2609,2019-11-08 17:32:00,t,73296,73296,43.262095,-70.865239,f,2019-11-10 00:04:24.647,972462,,972462
NH,12913,Pine Street Park,4,,,Ash,St,,,,Somersworth,NH,03878,4411,2019-08-16 17:56:00,t,73296,73296,43.25614,-70.862568,f,2019-08-16 17:56:34.20,972465,,972465
NH,12575,Webster Field,,,S,MAIN,St,,,,Wolfeboro,NH,03894,,2019-07-30 18:12:00,t,73296,73296,43.556855,-71.18373,f,2019-07-30 18:11:53.983,,,972506
NH,12781,North Main Café,15,,N,Main,St,,,,Wolfeboro,NH,03894,4485,2019-08-09 04:18:00,t,73296,73296,43.57576,-71.18322,f,2019-12-28 02:16:22.313,972506,,972506
NH,13020,Wolfeboro Phonebank Center,16,,,Green,St,,,,Wolfeboro,NH,03894,4116,2019-08-23 14:47:00,t,73296,73296,43.58095,-71.204066,f,2019-11-06 20:20:02.95,972506,,972506
NH,14216,Clark Park,218,,S,Main,St,,,,Wolfeboro,NH,03894,4411,2019-10-17 01:52:00,t,73296,73296,43.582058,-71.202948,f,2019-10-17 20:02:51.86,,,972506
NH,13520,Elements Books Coffee Beer,265,,,Main,St,,,,Biddeford,ME,04005,3091,2019-09-20 17:55:00,t,73296,73296,43.493996,-70.458006,f,2019-09-20 17:58:48.447,,,972488
NH,13519,Pepperel Mill Campus,32,,,Main,St,,,,Biddeford,ME,04005,5145,2019-09-20 17:52:00,t,73296,73296,43.445374,-70.348984,f,2019-09-20 17:51:57.383,,,972445
NH,13221,Troy's home,59,,,Washington,St,,,,Biddeford,ME,04005,2554,2019-09-04 18:33:00,t,73296,73296,43.491965,-70.455966,f,2019-09-04 18:33:40.80,,,972488
NH,13305,Coffee By Design,,,,DIAMOND,St,,,,Portland,ME,04101,,2019-09-11 19:24:00,t,73296,73296,43.666752,-70.257086,f,2019-09-11 19:23:52.60,,,972488
NH,13110,Renee's place,28,,,James,St,,Apt,1,Portland,ME,04103,3241,2019-08-29 23:32:00,t,73296,73296,43.674821,-70.291827,f,2019-09-11 20:51:38.517,,,972488
NH,13607,Woodfords Club,179,,,Woodford,St,,,,Portland,ME,04103,5601,2019-09-24 19:33:00,t,73296,73296,43.671057,-70.286237,f,2019-09-24 19:33:30.21,,,972488
NH,13656,Ryan's Place,350,,,College,St,,,,Lewiston,ME,04240,6002,2019-09-26 16:41:00,t,73296,73296,44.108875,-70.204037,f,2019-10-12 20:07:27.273,,,972227
NH,14090,Queen City Cinema Club,128,B,,Main,St,,,,Bangor,ME,04401,6306,2019-10-11 20:05:00,t,73296,73296,44.7995,-68.77189,f,2019-10-11 20:16:22.19,,,972498
NH,14091,Queen City Cinema Club,128,B,,Main,St,,,,Bangor,ME,04401,6306,2019-10-11 20:05:00,t,73296,73296,44.7995,-68.77189,f,2019-10-11 20:07:23.007,,2019-10-11 20:06:00,972498
NH,13887,Peace and Justice Center of Eastern Maine,96,,,Harlow,St,,Ste,100,Bangor,ME,04401,4950,2019-10-03 17:32:00,t,73296,73296,44.803538,-68.771251,f,2019-10-03 17:33:36.43,,,972498
NH,14942,Moon Dog Cafe,24,,,Rockingham,St,,,,Bellows Falls,VT,05101,1316,2019-11-22 19:49:00,t,73296,73296,43.134365,-72.445139,f,2019-12-03 20:14:28.40,,,972490
NH,13471,Springfield Town Library,43,,,Main,St,,,,Springfield,VT,05156,2904,2019-09-19 17:02:00,t,73296,73296,43.298179,-72.482235,f,2019-09-23 23:02:16.807,,,972226
NH,13010,Everyone's Books,25,,,Elliot,St,,,,Brattleboro,VT,05301,3209,2019-08-22 15:53:00,t,73296,73296,42.852146,-72.55887,f,2019-11-19 06:02:38.663,,,972317
NH,14193,Burlington HQ,131,,,Church,St,,,,Burlington,VT,05401,8425,2019-10-16 18:23:00,t,73296,73296,44.47677,-73.212812,f,2019-10-16 18:22:50.24,,,972387
NH,13309,Sean's House,2210,,,Pearl,St,,,,Austin,TX,78705,5072,2019-09-11 22:50:00,t,73296,73296,30.283913,-97.746361,f,2019-09-18 22:00:49.597,,,972317
NH,14857,Masonic Temple,1950,,,Massachusetts,Ave,,,,Cambridge,MA,02140,2102,2019-11-18 21:32:00,t,73296,73296,42.389558,-71.120431,f,2019-11-18 21:32:45.297,,,972420
NH,12804,Coffee Factory,55,,,Crystal,Ave,,Derry,NH,Derry,NH,03038,1702,2019-08-09 19:33:00,t,73296,73296,42.892393,-71.326798,f,2019-08-09 19:34:01.55,972258,,972258
NH,13857,Coffee Factory,55,,,Crystal,Ave,,,,Derry,NH,03038,1702,2019-10-02 19:50:00,t,73296,73296,42.892393,-71.326798,f,2020-01-02 18:07:20.38,972258,,972258
NH,13343,Jennifer's House,5,,,Peidmont,Ave,,,,Merrimack,NH,03054,3824,2019-09-13 18:38:00,t,73296,73296,42.848125,-71.541789,f,2019-09-24 00:32:59.503,972381,,972381
NH,15039,"Home of Sean Lewis, Super Volunteer",179,,,Brady,Ave,,,,Salem,NH,03079,2805,2019-12-02 22:39:00,t,73296,73296,42.770638,-71.265189,f,2019-12-07 15:47:07.523,972449,,972449
NH,15362,Shoppers,18,,,Lake,Ave,,,,Manchester,NH,03101,2406,2019-12-18 01:26:00,t,73296,73296,42.987448,-71.462333,f,2019-12-18 01:26:07.51,,,972365
NH,13963,Panera Bread,52,,,March,Ave,,,,Manchester,NH,03103,4012,2019-10-06 21:09:00,t,73296,73296,42.961594,-71.441573,f,2020-01-02 00:37:38.04,,,972370
NH,14621,Tucker Free Library,31,,,Western,Ave,,,,Henniker,NH,03242,,2019-11-06 20:43:00,t,73296,73296,43.179443,-71.82356,f,2019-12-24 17:05:51.33,,,972314
NH,13006,West Lebanon Field Office,3,,,Atwood,Ave,,,,West Lebanon,NH,03784,1401,2019-08-22 15:38:00,t,73296,73296,43.64825,-72.30982,t,2020-01-04 22:16:28.213,,,972347
NH,12252,Conway Public Library,15,,,Greenwood,Ave,,,,Conway,NH,03818,6130,2019-07-11 04:08:00,t,73296,73296,43.978537,-71.116982,f,2019-07-11 04:08:39.103,972247,,972247
NH,13131,Rotary Arts Pavilion,1,,,Henry Law,Ave,,,,Dover,NH,03820,3868,2019-08-30 20:25:00,t,73296,73296,43.193077,-70.872103,f,2019-08-30 20:26:04.207,,,972263
NH,12709,Aroma Joe's,31,,,Portsmouth,Ave,,,,Exeter,NH,03833,2102,2019-08-06 16:00:00,t,73296,73296,42.982133,-70.939864,f,2019-10-17 01:04:40.527,972280,,972280
NH,12243,Hampton Public Library,2,,,Academy,Ave,,,,Hampton,NH,03842,2200,2019-07-10 17:58:00,t,73296,73296,42.937951,-70.833797,f,2019-12-20 01:53:21.277,972306,,972306
NH,14021,Lane Memorial Library,2,,,Academy,Ave,,,NH3842,Hampton,NH,03842,2200,2019-10-09 17:03:00,t,73296,73296,42.93795,-70.833828,f,2019-10-19 23:08:44.903,972306,,972306
NH,12265,North Hampton Public Libary,237,A,,Atlantic,Ave,,,,North Hampton,NH,03862,2359,2019-07-11 19:59:00,t,73296,73296,42.97287,-70.82888,f,2019-07-11 19:59:16.237,,,972412
NH,14515,Wiggin Memorial Library,10,,,Bunker Hill,Ave,,,,Stratham,NH,03885,2403,2019-10-31 18:32:00,t,73296,73296,43.01047,-70.915997,f,2019-12-30 02:33:09.74,972474,,972474
NH,15560,Seven Suns Coffee & Tea,21,,,Railroad,Ave,,,,Wolfeboro,NH,03894,4377,2020-01-02 23:49:00,t,73296,73296,43.585228,-71.212798,f,2020-01-02 23:48:50.037,972506,,972506
NH,13099,Gorsun Residence,12,,,Pierce,Ave,,,,Sanford,ME,04073,5833,2019-08-29 20:45:00,t,73296,73296,43.400515,-70.689005,f,2019-08-29 20:45:41.657,,,972439
NH,13448,The Proper Cup,500,,,Forest,Ave,,,,Portland,ME,04101,1541,2019-09-18 18:13:00,t,73296,73296,43.667109,-70.278874,f,2019-09-18 18:13:37.857,,,972488
NH,12339,Glickman Library,314,,,Forest,Ave,,,,Portland,ME,04101,2010,2019-07-18 17:52:00,t,73296,73296,43.662611,-70.27244,f,2019-07-18 17:52:02.403,,,972488
NH,12237,Craig Dorais' House,105,,,Lexington,Ave,,,,Portland,ME,04103,1922,2019-07-09 22:41:00,t,73296,73296,43.696234,-70.301743,f,2019-10-02 23:43:06.44,,,972488
NH,14909,120 Eastern Ave 2,120,,,Eastern,Ave,,Apt,2,Augusta,ME,04330,5841,2019-11-20 22:11:00,t,73296,73296,44.308895,-69.760136,f,2019-11-20 22:12:17.743,,,972227
NH,13376,26 Redfield Circle,26,,,Redfield,Cir,,,,Derry,NH,03038,4839,2019-09-15 16:30:00,t,73296,73296,42.893333,-71.26434,f,2019-09-20 00:04:18.907,972256,,972256
NH,13488,Epping Dunkin Donuts,62,,,Calef,Hwy,,,,Epping,NH,03042,2203,2019-09-19 21:48:00,t,73296,73296,43.028883,-71.074956,f,2019-09-26 18:50:46.373,972277,,972277
NH,15071,Commons Shopping Plaza,515,,,Daniel Webster,Hwy,,,,Merrimack,NH,03054,3714,2019-12-03 23:56:00,t,73296,73296,42.872314,-71.489327,f,2019-12-03 23:56:38.77,,,972379
NH,13503,331 Daniel Webster Hwy,331,,,Daniel Webster,Hwy,,,,Merrimack,NH,03054,4142,2019-09-20 14:35:00,t,73296,73296,42.843483,-71.49259,f,2019-09-22 00:07:07.90,972379,,972379
NH,14017,Big Kahunas Cafe,380,,,Daniel Webster,Hwy,,,,Merrimack,NH,03054,4169,2019-10-09 16:11:00,t,73296,73296,42.852017,-71.492501,f,2019-10-12 23:03:02.747,,,972379
NH,13335,Catherine's Apartment,331,,,Daniel Webster,Hwy,,Apt,4,Merrimack,NH,03054,4142,2019-09-13 18:03:00,t,73296,73296,42.843483,-71.49259,f,2019-10-23 16:42:42.05,972379,,972379
NH,14823,Merrimack Public Library (Klumpp Room),470,,,Daniel Webster,Hwy,,,,Merrimack,NH,03054,3648,2019-11-16 21:44:00,t,73296,73296,42.867094,-71.493632,f,2019-12-25 19:45:56.28,,,972379
NH,15527,Cup and Crumb,1040,,,Whittier,Hwy,,,,Moultonborough,NH,03254,,2019-12-31 18:22:00,t,73296,73296,43.756369,-71.392881,f,2019-12-31 18:22:28.21,,,972389
NH,13025,Mt. Caesar Union Library,628,,,Old Homestead,Hwy,,,,Swanzewy,NH,03446,2311,2019-08-23 21:29:00,t,73296,73296,42.872155,-72.281224,f,2019-12-11 19:10:05.483,,,972480
NH,15272,Mt Caesar School,585,,,Old Homestead,Hwy,,,,Swanzey,NH,03446,2303,2019-12-10 22:41:00,t,73296,73296,42.875097,-72.281145,f,2019-12-10 22:41:10.14,972480,,972480
NH,15426,489 Daniel Webster Hwy,489,,,Daniel Webster,Hwy,,,,Stratford,NH,03590,,2019-12-20 20:31:00,t,73296,73296,44.667798,-71.570383,f,2019-12-20 20:32:24.98,,,972473
NH,14070,Calef's Country Store,606,,,Franklin Pierce,Hwy,,,,Barrington,NH,03825,,2019-10-10 23:19:00,t,73296,73296,43.213214,-70.997077,f,2020-01-03 01:21:47.493,,,972199
NH,14652,Kozy's Pizza,748,,,Calef,Hwy,,,,Barrington,NH,03825,7238,2019-11-08 18:46:00,t,73296,73296,43.195317,-70.998122,f,2019-11-09 23:34:22.68,972199,,972199
NH,12253,The Metropolitan Coffeehouse,2680,,,White Mountain,Hwy,,,,North Conway,NH,03860,,2019-07-11 04:22:00,t,73296,73296,44.052765,-71.128036,f,2019-07-11 04:21:52.15,,,972247
NH,14937,Thompson Hall,200,,,Hicks,Way,,,,Amherst,MA,01003,9277,2019-11-22 03:45:00,t,73296,73296,42.39001,-72.529957,f,2019-11-22 17:59:56.72,,,972503
NH,12581,Hooksett Public Library,31,,,Mount Saint Marys,Way,,,,Hooksett,NH,03106,4400,2019-07-30 21:06:00,t,73296,73296,43.092903,-71.451597,f,2019-10-17 01:06:07.427,972321,,972321
NH,15256,"Cocheco Room, University of New Hampshire",,,,Main Street & Quad,Way,,,,Durham,NH,03824,,2019-12-09 22:25:00,t,73296,73296,43.134455,-70.926537,f,2019-12-09 22:26:00.327,,,972270
NH,12474,Lauren's Basement,7,,,Penstock,Way,,,,Newmarket,NH,03857,4417,2019-07-24 18:52:00,t,73296,73296,43.06927,-70.95798,f,2019-09-21 02:30:57.673,972409,,972409
NH,15286,Lilly's House,48,,,Kimball,Way,,,,Newmarket,NH,03857,2165,2019-12-11 19:11:00,t,73296,73296,43.068377,-70.95618,f,2020-01-03 19:10:33.02,972409,,972409
NH,14191,Mariginal Way,274,,,Marginal,Way,,#,298,Portland,ME,04101,2549,2019-10-16 18:13:00,t,73296,73296,43.663627,-70.262522,f,2019-10-16 18:14:53.76,,,972488
NH,14658,UMass Boston and BC,100,,,William T Morrissey,Blvd,,,,Boston,MA,02125,3300,2019-11-08 21:48:00,t,73296,73296,42.316435,-71.039904,f,2019-11-08 21:48:40.88,,,972420
NH,14098,Starbucks at Premium Outlets,17,,,Premium Outlets,Blvd,,Unit,A,Merrimack,NH,03054,4784,2019-10-12 13:29:00,t,73296,73296,42.824215,-71.506042,f,2019-10-15 19:00:20.003,,,972379
NH,14923,McDonald's,3,,,Northeastern,Blvd,,,,Nashua,NH,03062,3111,2019-11-21 19:39:00,t,73296,73296,42.732541,-71.475589,f,2019-12-04 18:28:10.287,,,972398
NH,13106,Rochester Starbucks,145,,,Marketplace,Blvd,,Unit,2,Rochester,NH,03867,4383,2019-08-29 22:05:00,t,73296,73296,43.31635,-71.00684,f,2019-08-29 22:05:50.673,,,972443
